{"type":"FeatureCollection","features":[{"type":"Feature","geometry":{"type":"Point","coordinates":[28.602583,44.151521]},"properties":{"name":"Cap Linie Confort Urban - imbarcare","band":0,"modes":"bus","arr":["1","5-40","5b"],"off":[0,-0.8]}},{"type":"Feature","geometry":{"type":"Point","coordinates":[28.602583,44.151521]},"properties":{"line":"1","mode":"bus","color":"#0059a9","colorDark":"#00294f","band":0,"off":[-3.4,1.1]}},{"type":"Feature","geometry":{"type":"Point","coordinates":[28.602583,44.151521]},"properties":{"line":"5-40","mode":"bus","color":"#0059a9","colorDark":"#00294f","band":0,"off":[0,1.1]}},{"type":"Feature","geometry":{"type":"Point","coordinates":[28.602583,44.151521]},"properties":{"line":"5b","mode":"bus","color":"#0059a9","colorDark":"#00294f","band":0,"off":[3.4,1.1]}},{"type":"Feature","geometry":{"type":"Point","coordinates":[28.627484,44.201029]},"properties":{"name":"Piata Tomis 3","band":0,"modes":"bus","arr":["1"],"off":[0,-0.8]}},{"type":"Feature","geometry":{"type":"Point","coordinates":[28.627484,44.201029]},"properties":{"line":"1","mode":"bus","color":"#0059a9","colorDark":"#00294f","band":0,"off":[0,1.1]}},{"type":"Feature","geometry":{"type":"Point","coordinates":[28.623736,44.211161]},"properties":{"name":"Cap Linie Tomis Nord","band":0,"modes":"bus","arr":["2-43","3","3b","42"],"off":[0,-0.8]}},{"type":"Feature","geometry":{"type":"Point","coordinates":[28.623736,44.211161]},"properties":{"line":"2-43","mode":"bus","color":"#0059a9","colorDark":"#00294f","band":0,"off":[-5.1,1.1]}},{"type":"Feature","geometry":{"type":"Point","coordinates":[28.623736,44.211161]},"properties":{"line":"3","mode":"bus","color":"#0059a9","colorDark":"#00294f","band":0,"off":[-1.7,1.1]}},{"type":"Feature","geometry":{"type":"Point","coordinates":[28.623736,44.211161]},"properties":{"line":"3b","mode":"bus","color":"#0059a9","colorDark":"#00294f","band":0,"off":[1.7,1.1]}},{"type":"Feature","geometry":{"type":"Point","coordinates":[28.623736,44.211161]},"properties":{"line":"42","mode":"bus","color":"#0059a9","colorDark":"#00294f","band":0,"off":[5.1,1.1]}},{"type":"Feature","geometry":{"type":"Point","coordinates":[28.633372,44.168617]},"properties":{"name":"Gara","band":0,"modes":"bus","arr":["5b","43C","43M","100C","100M","101M","CiTy Tour"],"off":[0,-0.8]}},{"type":"Feature","geometry":{"type":"Point","coordinates":[28.633372,44.168617]},"properties":{"name":"Cap Linie Gara","band":0,"modes":"bus","arr":["5b","43C","43M","100C","100M","101M","CiTy Tour"],"off":[0,-1.9]}},{"type":"Feature","geometry":{"type":"Point","coordinates":[28.633372,44.168617]},"properties":{"line":"5b","mode":"bus","color":"#0059a9","colorDark":"#00294f","band":0,"off":[-6.8,1.1]}},{"type":"Feature","geometry":{"type":"Point","coordinates":[28.633372,44.168617]},"properties":{"line":"43C","mode":"bus","color":"#0059a9","colorDark":"#00294f","band":0,"off":[-3.4,1.1]}},{"type":"Feature","geometry":{"type":"Point","coordinates":[28.633372,44.168617]},"properties":{"line":"43M","mode":"bus","color":"#0059a9","colorDark":"#00294f","band":0,"off":[0,1.1]}},{"type":"Feature","geometry":{"type":"Point","coordinates":[28.633372,44.168617]},"properties":{"line":"100C","mode":"bus","color":"#0059a9","colorDark":"#00294f","band":0,"off":[3.4,1.1]}},{"type":"Feature","geometry":{"type":"Point","coordinates":[28.633372,44.168617]},"properties":{"line":"100M","mode":"bus","color":"#0059a9","colorDark":"#00294f","band":0,"off":[6.8,1.1]}},{"type":"Feature","geometry":{"type":"Point","coordinates":[28.633372,44.168617]},"properties":{"line":"101M","mode":"bus","color":"#0059a9","colorDark":"#00294f","band":0,"off":[-1.7,3.1]}},{"type":"Feature","geometry":{"type":"Point","coordinates":[28.633372,44.168617]},"properties":{"line":"CiTy Tour","mode":"bus","color":"#0059a9","colorDark":"#00294f","band":0,"off":[1.7,3.1]}},{"type":"Feature","geometry":{"type":"Point","coordinates":[28.631839,44.139349]},"properties":{"name":"Arcasului","band":0,"modes":"bus","arr":["2-43"],"off":[0,-0.8]}},{"type":"Feature","geometry":{"type":"Point","coordinates":[28.631839,44.139349]},"properties":{"line":"2-43","mode":"bus","color":"#0059a9","colorDark":"#00294f","band":0,"off":[0,1.1]}},{"type":"Feature","geometry":{"type":"Point","coordinates":[28.606877,44.231409]},"properties":{"name":"Cap Linie Sanatoriu","band":0,"modes":"bus","arr":["3"],"off":[0,-0.8]}},{"type":"Feature","geometry":{"type":"Point","coordinates":[28.606877,44.231409]},"properties":{"line":"3","mode":"bus","color":"#0059a9","colorDark":"#00294f","band":0,"off":[0,1.1]}},{"type":"Feature","geometry":{"type":"Point","coordinates":[28.590553,44.20282]},"properties":{"name":"Targ legume","band":0,"modes":"bus","arr":["3b"],"off":[0,-0.8]}},{"type":"Feature","geometry":{"type":"Point","coordinates":[28.590553,44.20282]},"properties":{"line":"3b","mode":"bus","color":"#0059a9","colorDark":"#00294f","band":0,"off":[0,1.1]}},{"type":"Feature","geometry":{"type":"Point","coordinates":[28.642369,44.215187]},"properties":{"name":"Pescarie","band":0,"modes":"bus","arr":["102"],"off":[0,-0.8]}},{"type":"Feature","geometry":{"type":"Point","coordinates":[28.642369,44.215187]},"properties":{"line":"102","mode":"bus","color":"#0059a9","colorDark":"#00294f","band":0,"off":[0,1.1]}},{"type":"Feature","geometry":{"type":"Point","coordinates":[28.626151,44.215476]},"properties":{"name":"Cap Linie Univ. Ovidius","band":0,"modes":"bus","arr":["5-40"],"off":[0,-0.8]}},{"type":"Feature","geometry":{"type":"Point","coordinates":[28.626151,44.215476]},"properties":{"line":"5-40","mode":"bus","color":"#0059a9","colorDark":"#00294f","band":0,"off":[0,1.1]}},{"type":"Feature","geometry":{"type":"Point","coordinates":[28.621191,44.133878]},"properties":{"name":"Auchan (C.L.)","band":0,"modes":"bus","arr":["13"],"off":[0,-0.8]}},{"type":"Feature","geometry":{"type":"Point","coordinates":[28.621191,44.133878]},"properties":{"line":"13","mode":"bus","color":"#0059a9","colorDark":"#00294f","band":0,"off":[0,1.1]}},{"type":"Feature","geometry":{"type":"Point","coordinates":[28.605986,44.211521]},"properties":{"name":"Carrefour","band":0,"modes":"bus","arr":["13","43C","100C"],"off":[0,-0.8]}},{"type":"Feature","geometry":{"type":"Point","coordinates":[28.605986,44.211521]},"properties":{"line":"13","mode":"bus","color":"#0059a9","colorDark":"#00294f","band":0,"off":[-3.4,1.1]}},{"type":"Feature","geometry":{"type":"Point","coordinates":[28.605986,44.211521]},"properties":{"line":"43C","mode":"bus","color":"#0059a9","colorDark":"#00294f","band":0,"off":[0,1.1]}},{"type":"Feature","geometry":{"type":"Point","coordinates":[28.605986,44.211521]},"properties":{"line":"100C","mode":"bus","color":"#0059a9","colorDark":"#00294f","band":0,"off":[3.4,1.1]}},{"type":"Feature","geometry":{"type":"Point","coordinates":[28.58698,44.159003]},"properties":{"name":"Cap Linie Industriala -imbarcare","band":0,"modes":"bus","arr":["14","101","102"],"off":[0,-0.8]}},{"type":"Feature","geometry":{"type":"Point","coordinates":[28.58698,44.159003]},"properties":{"name":"Cap Linie Industriala - Imbarcare","band":0,"modes":"bus","arr":["14","101","102"],"off":[0,-3]}},{"type":"Feature","geometry":{"type":"Point","coordinates":[28.58698,44.159003]},"properties":{"line":"14","mode":"bus","color":"#0059a9","colorDark":"#00294f","band":0,"off":[-3.4,1.1]}},{"type":"Feature","geometry":{"type":"Point","coordinates":[28.58698,44.159003]},"properties":{"line":"101","mode":"bus","color":"#0059a9","colorDark":"#00294f","band":0,"off":[0,1.1]}},{"type":"Feature","geometry":{"type":"Point","coordinates":[28.58698,44.159003]},"properties":{"line":"102","mode":"bus","color":"#0059a9","colorDark":"#00294f","band":0,"off":[3.4,1.1]}},{"type":"Feature","geometry":{"type":"Point","coordinates":[28.609076,44.200709]},"properties":{"name":"Cap Linie Vivo","band":0,"modes":"bus","arr":["14","43M","101M"],"off":[0,-0.8]}},{"type":"Feature","geometry":{"type":"Point","coordinates":[28.609076,44.200709]},"properties":{"line":"14","mode":"bus","color":"#0059a9","colorDark":"#00294f","band":0,"off":[-3.4,1.1]}},{"type":"Feature","geometry":{"type":"Point","coordinates":[28.609076,44.200709]},"properties":{"line":"43M","mode":"bus","color":"#0059a9","colorDark":"#00294f","band":0,"off":[0,1.1]}},{"type":"Feature","geometry":{"type":"Point","coordinates":[28.609076,44.200709]},"properties":{"line":"101M","mode":"bus","color":"#0059a9","colorDark":"#00294f","band":0,"off":[3.4,1.1]}},{"type":"Feature","geometry":{"type":"Point","coordinates":[28.652159,44.175152]},"properties":{"name":"Cap linie Poarta 2","band":0,"modes":"bus","arr":["48"],"off":[0,-0.8]}},{"type":"Feature","geometry":{"type":"Point","coordinates":[28.652159,44.175152]},"properties":{"line":"48","mode":"bus","color":"#0059a9","colorDark":"#00294f","band":0,"off":[0,1.1]}},{"type":"Feature","geometry":{"type":"Point","coordinates":[28.66425,44.174032]},"properties":{"name":"Portul Tomis","band":0,"modes":"bus","arr":["42"],"off":[0,-0.8]}},{"type":"Feature","geometry":{"type":"Point","coordinates":[28.66425,44.174032]},"properties":{"line":"42","mode":"bus","color":"#0059a9","colorDark":"#00294f","band":0,"off":[0,1.1]}},{"type":"Feature","geometry":{"type":"Point","coordinates":[28.659255,44.171087]},"properties":{"name":"Cap Linie Poarta 1","band":0,"modes":"bus","arr":["44","51","101"],"off":[0,-0.8]}},{"type":"Feature","geometry":{"type":"Point","coordinates":[28.659255,44.171087]},"properties":{"line":"44","mode":"bus","color":"#0059a9","colorDark":"#00294f","band":0,"off":[-3.4,1.1]}},{"type":"Feature","geometry":{"type":"Point","coordinates":[28.659255,44.171087]},"properties":{"line":"51","mode":"bus","color":"#0059a9","colorDark":"#00294f","band":0,"off":[0,1.1]}},{"type":"Feature","geometry":{"type":"Point","coordinates":[28.659255,44.171087]},"properties":{"line":"101","mode":"bus","color":"#0059a9","colorDark":"#00294f","band":0,"off":[3.4,1.1]}},{"type":"Feature","geometry":{"type":"Point","coordinates":[28.621764,44.196984]},"properties":{"name":"Cap Linie Henri Coanda","band":0,"modes":"bus","arr":["44"],"off":[0,-0.8]}},{"type":"Feature","geometry":{"type":"Point","coordinates":[28.621764,44.196984]},"properties":{"line":"44","mode":"bus","color":"#0059a9","colorDark":"#00294f","band":0,"off":[0,1.1]}},{"type":"Feature","geometry":{"type":"Point","coordinates":[28.576616,44.168891]},"properties":{"name":"Cap linie Palas - Debarcare","band":0,"modes":"bus","arr":["48"],"off":[0,-0.8]}},{"type":"Feature","geometry":{"type":"Point","coordinates":[28.576616,44.168891]},"properties":{"line":"48","mode":"bus","color":"#0059a9","colorDark":"#00294f","band":0,"off":[0,1.1]}},{"type":"Feature","geometry":{"type":"Point","coordinates":[28.597095,44.177991]},"properties":{"name":"R.A.J.A.","band":0,"modes":"bus","arr":["51"],"off":[0,-0.8]}},{"type":"Feature","geometry":{"type":"Point","coordinates":[28.597095,44.177991]},"properties":{"line":"51","mode":"bus","color":"#0059a9","colorDark":"#00294f","band":0,"off":[0,1.1]}},{"type":"Feature","geometry":{"type":"Point","coordinates":[28.618427,44.264281]},"properties":{"name":"Cap Linie Mamaia","band":0,"modes":"bus","arr":["100M","CiTy Tour"],"off":[0,-0.8]}},{"type":"Feature","geometry":{"type":"Point","coordinates":[28.618427,44.264281]},"properties":{"line":"100M","mode":"bus","color":"#0059a9","colorDark":"#00294f","band":0,"off":[-1.7,1.1]}},{"type":"Feature","geometry":{"type":"Point","coordinates":[28.618427,44.264281]},"properties":{"line":"CiTy Tour","mode":"bus","color":"#0059a9","colorDark":"#00294f","band":0,"off":[1.7,1.1]}},{"type":"Feature","geometry":{"type":"Point","coordinates":[28.602583,44.151521]},"properties":{"name":"Cap Linie Confort Urban - imbarcare","band":1,"modes":"bus","arr":["1","5-40","5b"],"off":[0,-0.8]}},{"type":"Feature","geometry":{"type":"Point","coordinates":[28.602583,44.151521]},"properties":{"line":"1","mode":"bus","color":"#0059a9","colorDark":"#00294f","band":1,"off":[-3.4,1.1]}},{"type":"Feature","geometry":{"type":"Point","coordinates":[28.602583,44.151521]},"properties":{"line":"5-40","mode":"bus","color":"#0059a9","colorDark":"#00294f","band":1,"off":[0,1.1]}},{"type":"Feature","geometry":{"type":"Point","coordinates":[28.602583,44.151521]},"properties":{"line":"5b","mode":"bus","color":"#0059a9","colorDark":"#00294f","band":1,"off":[3.4,1.1]}},{"type":"Feature","geometry":{"type":"Point","coordinates":[28.627484,44.201029]},"properties":{"name":"Piata Tomis 3","band":1,"modes":"bus","arr":["1"],"off":[0,-0.8]}},{"type":"Feature","geometry":{"type":"Point","coordinates":[28.627484,44.201029]},"properties":{"line":"1","mode":"bus","color":"#0059a9","colorDark":"#00294f","band":1,"off":[0,1.1]}},{"type":"Feature","geometry":{"type":"Point","coordinates":[28.623736,44.211161]},"properties":{"name":"Cap Linie Tomis Nord","band":1,"modes":"bus","arr":["2-43","3","3b","42"],"off":[0,-0.8]}},{"type":"Feature","geometry":{"type":"Point","coordinates":[28.623736,44.211161]},"properties":{"line":"2-43","mode":"bus","color":"#0059a9","colorDark":"#00294f","band":1,"off":[-5.1,1.1]}},{"type":"Feature","geometry":{"type":"Point","coordinates":[28.623736,44.211161]},"properties":{"line":"3","mode":"bus","color":"#0059a9","colorDark":"#00294f","band":1,"off":[-1.7,1.1]}},{"type":"Feature","geometry":{"type":"Point","coordinates":[28.623736,44.211161]},"properties":{"line":"3b","mode":"bus","color":"#0059a9","colorDark":"#00294f","band":1,"off":[1.7,1.1]}},{"type":"Feature","geometry":{"type":"Point","coordinates":[28.623736,44.211161]},"properties":{"line":"42","mode":"bus","color":"#0059a9","colorDark":"#00294f","band":1,"off":[5.1,1.1]}},{"type":"Feature","geometry":{"type":"Point","coordinates":[28.633372,44.168617]},"properties":{"name":"Gara","band":1,"modes":"bus","arr":["5b","43C","43M","100C","100M","101M","CiTy Tour"],"off":[0,-0.8]}},{"type":"Feature","geometry":{"type":"Point","coordinates":[28.633372,44.168617]},"properties":{"name":"Cap Linie Gara","band":1,"modes":"bus","arr":["5b","43C","43M","100C","100M","101M","CiTy Tour"],"off":[0,-1.9]}},{"type":"Feature","geometry":{"type":"Point","coordinates":[28.633372,44.168617]},"properties":{"line":"5b","mode":"bus","color":"#0059a9","colorDark":"#00294f","band":1,"off":[-6.8,1.1]}},{"type":"Feature","geometry":{"type":"Point","coordinates":[28.633372,44.168617]},"properties":{"line":"43C","mode":"bus","color":"#0059a9","colorDark":"#00294f","band":1,"off":[-3.4,1.1]}},{"type":"Feature","geometry":{"type":"Point","coordinates":[28.633372,44.168617]},"properties":{"line":"43M","mode":"bus","color":"#0059a9","colorDark":"#00294f","band":1,"off":[0,1.1]}},{"type":"Feature","geometry":{"type":"Point","coordinates":[28.633372,44.168617]},"properties":{"line":"100C","mode":"bus","color":"#0059a9","colorDark":"#00294f","band":1,"off":[3.4,1.1]}},{"type":"Feature","geometry":{"type":"Point","coordinates":[28.633372,44.168617]},"properties":{"line":"100M","mode":"bus","color":"#0059a9","colorDark":"#00294f","band":1,"off":[6.8,1.1]}},{"type":"Feature","geometry":{"type":"Point","coordinates":[28.633372,44.168617]},"properties":{"line":"101M","mode":"bus","color":"#0059a9","colorDark":"#00294f","band":1,"off":[-1.7,3.1]}},{"type":"Feature","geometry":{"type":"Point","coordinates":[28.633372,44.168617]},"properties":{"line":"CiTy Tour","mode":"bus","color":"#0059a9","colorDark":"#00294f","band":1,"off":[1.7,3.1]}},{"type":"Feature","geometry":{"type":"Point","coordinates":[28.631839,44.139349]},"properties":{"name":"Arcasului","band":1,"modes":"bus","arr":["2-43"],"off":[0,-0.8]}},{"type":"Feature","geometry":{"type":"Point","coordinates":[28.631839,44.139349]},"properties":{"line":"2-43","mode":"bus","color":"#0059a9","colorDark":"#00294f","band":1,"off":[0,1.1]}},{"type":"Feature","geometry":{"type":"Point","coordinates":[28.606877,44.231409]},"properties":{"name":"Cap Linie Sanatoriu","band":1,"modes":"bus","arr":["3"],"off":[0,-0.8]}},{"type":"Feature","geometry":{"type":"Point","coordinates":[28.606877,44.231409]},"properties":{"line":"3","mode":"bus","color":"#0059a9","colorDark":"#00294f","band":1,"off":[0,1.1]}},{"type":"Feature","geometry":{"type":"Point","coordinates":[28.590553,44.20282]},"properties":{"name":"Targ legume","band":1,"modes":"bus","arr":["3b"],"off":[0,-0.8]}},{"type":"Feature","geometry":{"type":"Point","coordinates":[28.590553,44.20282]},"properties":{"line":"3b","mode":"bus","color":"#0059a9","colorDark":"#00294f","band":1,"off":[0,1.1]}},{"type":"Feature","geometry":{"type":"Point","coordinates":[28.642369,44.215187]},"properties":{"name":"Pescarie","band":1,"modes":"bus","arr":["102"],"off":[0,-0.8]}},{"type":"Feature","geometry":{"type":"Point","coordinates":[28.642369,44.215187]},"properties":{"line":"102","mode":"bus","color":"#0059a9","colorDark":"#00294f","band":1,"off":[0,1.1]}},{"type":"Feature","geometry":{"type":"Point","coordinates":[28.626151,44.215476]},"properties":{"name":"Cap Linie Univ. Ovidius","band":1,"modes":"bus","arr":["5-40"],"off":[0,-0.8]}},{"type":"Feature","geometry":{"type":"Point","coordinates":[28.626151,44.215476]},"properties":{"line":"5-40","mode":"bus","color":"#0059a9","colorDark":"#00294f","band":1,"off":[0,1.1]}},{"type":"Feature","geometry":{"type":"Point","coordinates":[28.621191,44.133878]},"properties":{"name":"Auchan (C.L.)","band":1,"modes":"bus","arr":["13"],"off":[0,-0.8]}},{"type":"Feature","geometry":{"type":"Point","coordinates":[28.621191,44.133878]},"properties":{"line":"13","mode":"bus","color":"#0059a9","colorDark":"#00294f","band":1,"off":[0,1.1]}},{"type":"Feature","geometry":{"type":"Point","coordinates":[28.605986,44.211521]},"properties":{"name":"Carrefour","band":1,"modes":"bus","arr":["13","43C","100C"],"off":[0,-0.8]}},{"type":"Feature","geometry":{"type":"Point","coordinates":[28.605986,44.211521]},"properties":{"line":"13","mode":"bus","color":"#0059a9","colorDark":"#00294f","band":1,"off":[-3.4,1.1]}},{"type":"Feature","geometry":{"type":"Point","coordinates":[28.605986,44.211521]},"properties":{"line":"43C","mode":"bus","color":"#0059a9","colorDark":"#00294f","band":1,"off":[0,1.1]}},{"type":"Feature","geometry":{"type":"Point","coordinates":[28.605986,44.211521]},"properties":{"line":"100C","mode":"bus","color":"#0059a9","colorDark":"#00294f","band":1,"off":[3.4,1.1]}},{"type":"Feature","geometry":{"type":"Point","coordinates":[28.58698,44.159003]},"properties":{"name":"Cap Linie Industriala -imbarcare","band":1,"modes":"bus","arr":["14","101","102"],"off":[0,-0.8]}},{"type":"Feature","geometry":{"type":"Point","coordinates":[28.58698,44.159003]},"properties":{"name":"Cap Linie Industriala - Imbarcare","band":1,"modes":"bus","arr":["14","101","102"],"off":[0,-3]}},{"type":"Feature","geometry":{"type":"Point","coordinates":[28.58698,44.159003]},"properties":{"line":"14","mode":"bus","color":"#0059a9","colorDark":"#00294f","band":1,"off":[-3.4,1.1]}},{"type":"Feature","geometry":{"type":"Point","coordinates":[28.58698,44.159003]},"properties":{"line":"101","mode":"bus","color":"#0059a9","colorDark":"#00294f","band":1,"off":[0,1.1]}},{"type":"Feature","geometry":{"type":"Point","coordinates":[28.58698,44.159003]},"properties":{"line":"102","mode":"bus","color":"#0059a9","colorDark":"#00294f","band":1,"off":[3.4,1.1]}},{"type":"Feature","geometry":{"type":"Point","coordinates":[28.609076,44.200709]},"properties":{"name":"Cap Linie Vivo","band":1,"modes":"bus","arr":["14","43M","101M"],"off":[0,-0.8]}},{"type":"Feature","geometry":{"type":"Point","coordinates":[28.609076,44.200709]},"properties":{"line":"14","mode":"bus","color":"#0059a9","colorDark":"#00294f","band":1,"off":[-3.4,1.1]}},{"type":"Feature","geometry":{"type":"Point","coordinates":[28.609076,44.200709]},"properties":{"line":"43M","mode":"bus","color":"#0059a9","colorDark":"#00294f","band":1,"off":[0,1.1]}},{"type":"Feature","geometry":{"type":"Point","coordinates":[28.609076,44.200709]},"properties":{"line":"101M","mode":"bus","color":"#0059a9","colorDark":"#00294f","band":1,"off":[3.4,1.1]}},{"type":"Feature","geometry":{"type":"Point","coordinates":[28.652159,44.175152]},"properties":{"name":"Cap linie Poarta 2","band":1,"modes":"bus","arr":["48"],"off":[0,-0.8]}},{"type":"Feature","geometry":{"type":"Point","coordinates":[28.652159,44.175152]},"properties":{"line":"48","mode":"bus","color":"#0059a9","colorDark":"#00294f","band":1,"off":[0,1.1]}},{"type":"Feature","geometry":{"type":"Point","coordinates":[28.66425,44.174032]},"properties":{"name":"Portul Tomis","band":1,"modes":"bus","arr":["42"],"off":[0,-0.8]}},{"type":"Feature","geometry":{"type":"Point","coordinates":[28.66425,44.174032]},"properties":{"line":"42","mode":"bus","color":"#0059a9","colorDark":"#00294f","band":1,"off":[0,1.1]}},{"type":"Feature","geometry":{"type":"Point","coordinates":[28.659255,44.171087]},"properties":{"name":"Cap Linie Poarta 1","band":1,"modes":"bus","arr":["44","51","101"],"off":[0,-0.8]}},{"type":"Feature","geometry":{"type":"Point","coordinates":[28.659255,44.171087]},"properties":{"line":"44","mode":"bus","color":"#0059a9","colorDark":"#00294f","band":1,"off":[-3.4,1.1]}},{"type":"Feature","geometry":{"type":"Point","coordinates":[28.659255,44.171087]},"properties":{"line":"51","mode":"bus","color":"#0059a9","colorDark":"#00294f","band":1,"off":[0,1.1]}},{"type":"Feature","geometry":{"type":"Point","coordinates":[28.659255,44.171087]},"properties":{"line":"101","mode":"bus","color":"#0059a9","colorDark":"#00294f","band":1,"off":[3.4,1.1]}},{"type":"Feature","geometry":{"type":"Point","coordinates":[28.621764,44.196984]},"properties":{"name":"Cap Linie Henri Coanda","band":1,"modes":"bus","arr":["44"],"off":[0,-0.8]}},{"type":"Feature","geometry":{"type":"Point","coordinates":[28.621764,44.196984]},"properties":{"line":"44","mode":"bus","color":"#0059a9","colorDark":"#00294f","band":1,"off":[0,1.1]}},{"type":"Feature","geometry":{"type":"Point","coordinates":[28.576616,44.168891]},"properties":{"name":"Cap linie Palas - Debarcare","band":1,"modes":"bus","arr":["48"],"off":[0,-0.8]}},{"type":"Feature","geometry":{"type":"Point","coordinates":[28.576616,44.168891]},"properties":{"line":"48","mode":"bus","color":"#0059a9","colorDark":"#00294f","band":1,"off":[0,1.1]}},{"type":"Feature","geometry":{"type":"Point","coordinates":[28.597095,44.177991]},"properties":{"name":"R.A.J.A.","band":1,"modes":"bus","arr":["51"],"off":[0,-0.8]}},{"type":"Feature","geometry":{"type":"Point","coordinates":[28.597095,44.177991]},"properties":{"line":"51","mode":"bus","color":"#0059a9","colorDark":"#00294f","band":1,"off":[0,1.1]}},{"type":"Feature","geometry":{"type":"Point","coordinates":[28.618427,44.264281]},"properties":{"name":"Cap Linie Mamaia","band":1,"modes":"bus","arr":["100M","CiTy Tour"],"off":[0,-0.8]}},{"type":"Feature","geometry":{"type":"Point","coordinates":[28.618427,44.264281]},"properties":{"line":"100M","mode":"bus","color":"#0059a9","colorDark":"#00294f","band":1,"off":[-1.7,1.1]}},{"type":"Feature","geometry":{"type":"Point","coordinates":[28.618427,44.264281]},"properties":{"line":"CiTy Tour","mode":"bus","color":"#0059a9","colorDark":"#00294f","band":1,"off":[1.7,1.1]}},{"type":"Feature","geometry":{"type":"Point","coordinates":[28.602583,44.151521]},"properties":{"name":"Cap Linie Confort Urban - imbarcare","band":2,"modes":"bus","arr":["1","5-40","5b"],"off":[0,-0.8]}},{"type":"Feature","geometry":{"type":"Point","coordinates":[28.602583,44.151521]},"properties":{"line":"1","mode":"bus","color":"#0059a9","colorDark":"#00294f","band":2,"off":[-3.4,1.1]}},{"type":"Feature","geometry":{"type":"Point","coordinates":[28.602583,44.151521]},"properties":{"line":"5-40","mode":"bus","color":"#0059a9","colorDark":"#00294f","band":2,"off":[0,1.1]}},{"type":"Feature","geometry":{"type":"Point","coordinates":[28.602583,44.151521]},"properties":{"line":"5b","mode":"bus","color":"#0059a9","colorDark":"#00294f","band":2,"off":[3.4,1.1]}},{"type":"Feature","geometry":{"type":"Point","coordinates":[28.627484,44.201029]},"properties":{"name":"Piata Tomis 3","band":2,"modes":"bus","arr":["1"],"off":[0,-0.8]}},{"type":"Feature","geometry":{"type":"Point","coordinates":[28.627484,44.201029]},"properties":{"line":"1","mode":"bus","color":"#0059a9","colorDark":"#00294f","band":2,"off":[0,1.1]}},{"type":"Feature","geometry":{"type":"Point","coordinates":[28.623736,44.211161]},"properties":{"name":"Cap Linie Tomis Nord","band":2,"modes":"bus","arr":["2-43","3","3b","42"],"off":[0,-0.8]}},{"type":"Feature","geometry":{"type":"Point","coordinates":[28.623736,44.211161]},"properties":{"line":"2-43","mode":"bus","color":"#0059a9","colorDark":"#00294f","band":2,"off":[-5.1,1.1]}},{"type":"Feature","geometry":{"type":"Point","coordinates":[28.623736,44.211161]},"properties":{"line":"3","mode":"bus","color":"#0059a9","colorDark":"#00294f","band":2,"off":[-1.7,1.1]}},{"type":"Feature","geometry":{"type":"Point","coordinates":[28.623736,44.211161]},"properties":{"line":"3b","mode":"bus","color":"#0059a9","colorDark":"#00294f","band":2,"off":[1.7,1.1]}},{"type":"Feature","geometry":{"type":"Point","coordinates":[28.623736,44.211161]},"properties":{"line":"42","mode":"bus","color":"#0059a9","colorDark":"#00294f","band":2,"off":[5.1,1.1]}},{"type":"Feature","geometry":{"type":"Point","coordinates":[28.633372,44.168617]},"properties":{"name":"Gara","band":2,"modes":"bus","arr":["5b","43C","43M","100C","100M","101M","CiTy Tour"],"off":[0,-0.8]}},{"type":"Feature","geometry":{"type":"Point","coordinates":[28.633372,44.168617]},"properties":{"name":"Cap Linie Gara","band":2,"modes":"bus","arr":["5b","43C","43M","100C","100M","101M","CiTy Tour"],"off":[0,-1.9]}},{"type":"Feature","geometry":{"type":"Point","coordinates":[28.633372,44.168617]},"properties":{"line":"5b","mode":"bus","color":"#0059a9","colorDark":"#00294f","band":2,"off":[-6.8,1.1]}},{"type":"Feature","geometry":{"type":"Point","coordinates":[28.633372,44.168617]},"properties":{"line":"43C","mode":"bus","color":"#0059a9","colorDark":"#00294f","band":2,"off":[-3.4,1.1]}},{"type":"Feature","geometry":{"type":"Point","coordinates":[28.633372,44.168617]},"properties":{"line":"43M","mode":"bus","color":"#0059a9","colorDark":"#00294f","band":2,"off":[0,1.1]}},{"type":"Feature","geometry":{"type":"Point","coordinates":[28.633372,44.168617]},"properties":{"line":"100C","mode":"bus","color":"#0059a9","colorDark":"#00294f","band":2,"off":[3.4,1.1]}},{"type":"Feature","geometry":{"type":"Point","coordinates":[28.633372,44.168617]},"properties":{"line":"100M","mode":"bus","color":"#0059a9","colorDark":"#00294f","band":2,"off":[6.8,1.1]}},{"type":"Feature","geometry":{"type":"Point","coordinates":[28.633372,44.168617]},"properties":{"line":"101M","mode":"bus","color":"#0059a9","colorDark":"#00294f","band":2,"off":[-1.7,3.1]}},{"type":"Feature","geometry":{"type":"Point","coordinates":[28.633372,44.168617]},"properties":{"line":"CiTy Tour","mode":"bus","color":"#0059a9","colorDark":"#00294f","band":2,"off":[1.7,3.1]}},{"type":"Feature","geometry":{"type":"Point","coordinates":[28.631839,44.139349]},"properties":{"name":"Arcasului","band":2,"modes":"bus","arr":["2-43"],"off":[0,-0.8]}},{"type":"Feature","geometry":{"type":"Point","coordinates":[28.631839,44.139349]},"properties":{"line":"2-43","mode":"bus","color":"#0059a9","colorDark":"#00294f","band":2,"off":[0,1.1]}},{"type":"Feature","geometry":{"type":"Point","coordinates":[28.606877,44.231409]},"properties":{"name":"Cap Linie Sanatoriu","band":2,"modes":"bus","arr":["3"],"off":[0,-0.8]}},{"type":"Feature","geometry":{"type":"Point","coordinates":[28.606877,44.231409]},"properties":{"line":"3","mode":"bus","color":"#0059a9","colorDark":"#00294f","band":2,"off":[0,1.1]}},{"type":"Feature","geometry":{"type":"Point","coordinates":[28.590553,44.20282]},"properties":{"name":"Targ legume","band":2,"modes":"bus","arr":["3b"],"off":[0,-0.8]}},{"type":"Feature","geometry":{"type":"Point","coordinates":[28.590553,44.20282]},"properties":{"line":"3b","mode":"bus","color":"#0059a9","colorDark":"#00294f","band":2,"off":[0,1.1]}},{"type":"Feature","geometry":{"type":"Point","coordinates":[28.642369,44.215187]},"properties":{"name":"Pescarie","band":2,"modes":"bus","arr":["102"],"off":[0,-0.8]}},{"type":"Feature","geometry":{"type":"Point","coordinates":[28.642369,44.215187]},"properties":{"line":"102","mode":"bus","color":"#0059a9","colorDark":"#00294f","band":2,"off":[0,1.1]}},{"type":"Feature","geometry":{"type":"Point","coordinates":[28.626151,44.215476]},"properties":{"name":"Cap Linie Univ. Ovidius","band":2,"modes":"bus","arr":["5-40"],"off":[0,-0.8]}},{"type":"Feature","geometry":{"type":"Point","coordinates":[28.626151,44.215476]},"properties":{"line":"5-40","mode":"bus","color":"#0059a9","colorDark":"#00294f","band":2,"off":[0,1.1]}},{"type":"Feature","geometry":{"type":"Point","coordinates":[28.621191,44.133878]},"properties":{"name":"Auchan (C.L.)","band":2,"modes":"bus","arr":["13"],"off":[0,-0.8]}},{"type":"Feature","geometry":{"type":"Point","coordinates":[28.621191,44.133878]},"properties":{"line":"13","mode":"bus","color":"#0059a9","colorDark":"#00294f","band":2,"off":[0,1.1]}},{"type":"Feature","geometry":{"type":"Point","coordinates":[28.605986,44.211521]},"properties":{"name":"Carrefour","band":2,"modes":"bus","arr":["13","43C","100C"],"off":[0,-0.8]}},{"type":"Feature","geometry":{"type":"Point","coordinates":[28.605986,44.211521]},"properties":{"line":"13","mode":"bus","color":"#0059a9","colorDark":"#00294f","band":2,"off":[-3.4,1.1]}},{"type":"Feature","geometry":{"type":"Point","coordinates":[28.605986,44.211521]},"properties":{"line":"43C","mode":"bus","color":"#0059a9","colorDark":"#00294f","band":2,"off":[0,1.1]}},{"type":"Feature","geometry":{"type":"Point","coordinates":[28.605986,44.211521]},"properties":{"line":"100C","mode":"bus","color":"#0059a9","colorDark":"#00294f","band":2,"off":[3.4,1.1]}},{"type":"Feature","geometry":{"type":"Point","coordinates":[28.58698,44.159003]},"properties":{"name":"Cap Linie Industriala -imbarcare","band":2,"modes":"bus","arr":["14","101","102"],"off":[0,-0.8]}},{"type":"Feature","geometry":{"type":"Point","coordinates":[28.58698,44.159003]},"properties":{"name":"Cap Linie Industriala - Imbarcare","band":2,"modes":"bus","arr":["14","101","102"],"off":[0,-3]}},{"type":"Feature","geometry":{"type":"Point","coordinates":[28.58698,44.159003]},"properties":{"line":"14","mode":"bus","color":"#0059a9","colorDark":"#00294f","band":2,"off":[-3.4,1.1]}},{"type":"Feature","geometry":{"type":"Point","coordinates":[28.58698,44.159003]},"properties":{"line":"101","mode":"bus","color":"#0059a9","colorDark":"#00294f","band":2,"off":[0,1.1]}},{"type":"Feature","geometry":{"type":"Point","coordinates":[28.58698,44.159003]},"properties":{"line":"102","mode":"bus","color":"#0059a9","colorDark":"#00294f","band":2,"off":[3.4,1.1]}},{"type":"Feature","geometry":{"type":"Point","coordinates":[28.609076,44.200709]},"properties":{"name":"Cap Linie Vivo","band":2,"modes":"bus","arr":["14","43M","101M"],"off":[0,-0.8]}},{"type":"Feature","geometry":{"type":"Point","coordinates":[28.609076,44.200709]},"properties":{"line":"14","mode":"bus","color":"#0059a9","colorDark":"#00294f","band":2,"off":[-3.4,1.1]}},{"type":"Feature","geometry":{"type":"Point","coordinates":[28.609076,44.200709]},"properties":{"line":"43M","mode":"bus","color":"#0059a9","colorDark":"#00294f","band":2,"off":[0,1.1]}},{"type":"Feature","geometry":{"type":"Point","coordinates":[28.609076,44.200709]},"properties":{"line":"101M","mode":"bus","color":"#0059a9","colorDark":"#00294f","band":2,"off":[3.4,1.1]}},{"type":"Feature","geometry":{"type":"Point","coordinates":[28.652159,44.175152]},"properties":{"name":"Cap linie Poarta 2","band":2,"modes":"bus","arr":["48"],"off":[0,-0.8]}},{"type":"Feature","geometry":{"type":"Point","coordinates":[28.652159,44.175152]},"properties":{"line":"48","mode":"bus","color":"#0059a9","colorDark":"#00294f","band":2,"off":[0,1.1]}},{"type":"Feature","geometry":{"type":"Point","coordinates":[28.66425,44.174032]},"properties":{"name":"Portul Tomis","band":2,"modes":"bus","arr":["42"],"off":[0,-0.8]}},{"type":"Feature","geometry":{"type":"Point","coordinates":[28.66425,44.174032]},"properties":{"line":"42","mode":"bus","color":"#0059a9","colorDark":"#00294f","band":2,"off":[0,1.1]}},{"type":"Feature","geometry":{"type":"Point","coordinates":[28.659255,44.171087]},"properties":{"name":"Cap Linie Poarta 1","band":2,"modes":"bus","arr":["44","51","101"],"off":[0,-0.8]}},{"type":"Feature","geometry":{"type":"Point","coordinates":[28.659255,44.171087]},"properties":{"line":"44","mode":"bus","color":"#0059a9","colorDark":"#00294f","band":2,"off":[-3.4,1.1]}},{"type":"Feature","geometry":{"type":"Point","coordinates":[28.659255,44.171087]},"properties":{"line":"51","mode":"bus","color":"#0059a9","colorDark":"#00294f","band":2,"off":[0,1.1]}},{"type":"Feature","geometry":{"type":"Point","coordinates":[28.659255,44.171087]},"properties":{"line":"101","mode":"bus","color":"#0059a9","colorDark":"#00294f","band":2,"off":[3.4,1.1]}},{"type":"Feature","geometry":{"type":"Point","coordinates":[28.621764,44.196984]},"properties":{"name":"Cap Linie Henri Coanda","band":2,"modes":"bus","arr":["44"],"off":[0,-0.8]}},{"type":"Feature","geometry":{"type":"Point","coordinates":[28.621764,44.196984]},"properties":{"line":"44","mode":"bus","color":"#0059a9","colorDark":"#00294f","band":2,"off":[0,1.1]}},{"type":"Feature","geometry":{"type":"Point","coordinates":[28.576616,44.168891]},"properties":{"name":"Cap linie Palas - Debarcare","band":2,"modes":"bus","arr":["48"],"off":[0,-0.8]}},{"type":"Feature","geometry":{"type":"Point","coordinates":[28.576616,44.168891]},"properties":{"line":"48","mode":"bus","color":"#0059a9","colorDark":"#00294f","band":2,"off":[0,1.1]}},{"type":"Feature","geometry":{"type":"Point","coordinates":[28.597095,44.177991]},"properties":{"name":"R.A.J.A.","band":2,"modes":"bus","arr":["51"],"off":[0,-0.8]}},{"type":"Feature","geometry":{"type":"Point","coordinates":[28.597095,44.177991]},"properties":{"line":"51","mode":"bus","color":"#0059a9","colorDark":"#00294f","band":2,"off":[0,1.1]}},{"type":"Feature","geometry":{"type":"Point","coordinates":[28.618427,44.264281]},"properties":{"name":"Cap Linie Mamaia","band":2,"modes":"bus","arr":["100M","CiTy Tour"],"off":[0,-0.8]}},{"type":"Feature","geometry":{"type":"Point","coordinates":[28.618427,44.264281]},"properties":{"line":"100M","mode":"bus","color":"#0059a9","colorDark":"#00294f","band":2,"off":[-1.7,1.1]}},{"type":"Feature","geometry":{"type":"Point","coordinates":[28.618427,44.264281]},"properties":{"line":"CiTy Tour","mode":"bus","color":"#0059a9","colorDark":"#00294f","band":2,"off":[1.7,1.1]}},{"type":"Feature","geometry":{"type":"Point","coordinates":[28.602583,44.151521]},"properties":{"name":"Cap Linie Confort Urban - imbarcare","band":3,"modes":"bus","arr":["1","5-40","5b"],"off":[0,-0.8]}},{"type":"Feature","geometry":{"type":"Point","coordinates":[28.602583,44.151521]},"properties":{"line":"1","mode":"bus","color":"#0059a9","colorDark":"#00294f","band":3,"off":[-3.4,1.1]}},{"type":"Feature","geometry":{"type":"Point","coordinates":[28.602583,44.151521]},"properties":{"line":"5-40","mode":"bus","color":"#0059a9","colorDark":"#00294f","band":3,"off":[0,1.1]}},{"type":"Feature","geometry":{"type":"Point","coordinates":[28.602583,44.151521]},"properties":{"line":"5b","mode":"bus","color":"#0059a9","colorDark":"#00294f","band":3,"off":[3.4,1.1]}},{"type":"Feature","geometry":{"type":"Point","coordinates":[28.627484,44.201029]},"properties":{"name":"Piata Tomis 3","band":3,"modes":"bus","arr":["1"],"off":[0,-0.8]}},{"type":"Feature","geometry":{"type":"Point","coordinates":[28.627484,44.201029]},"properties":{"line":"1","mode":"bus","color":"#0059a9","colorDark":"#00294f","band":3,"off":[0,1.1]}},{"type":"Feature","geometry":{"type":"Point","coordinates":[28.623736,44.211161]},"properties":{"name":"Cap Linie Tomis Nord","band":3,"modes":"bus","arr":["2-43","3","3b","42"],"off":[0,-0.8]}},{"type":"Feature","geometry":{"type":"Point","coordinates":[28.623736,44.211161]},"properties":{"line":"2-43","mode":"bus","color":"#0059a9","colorDark":"#00294f","band":3,"off":[-5.1,1.1]}},{"type":"Feature","geometry":{"type":"Point","coordinates":[28.623736,44.211161]},"properties":{"line":"3","mode":"bus","color":"#0059a9","colorDark":"#00294f","band":3,"off":[-1.7,1.1]}},{"type":"Feature","geometry":{"type":"Point","coordinates":[28.623736,44.211161]},"properties":{"line":"3b","mode":"bus","color":"#0059a9","colorDark":"#00294f","band":3,"off":[1.7,1.1]}},{"type":"Feature","geometry":{"type":"Point","coordinates":[28.623736,44.211161]},"properties":{"line":"42","mode":"bus","color":"#0059a9","colorDark":"#00294f","band":3,"off":[5.1,1.1]}},{"type":"Feature","geometry":{"type":"Point","coordinates":[28.633372,44.168617]},"properties":{"name":"Gara","band":3,"modes":"bus","arr":["5b","43C","43M","100C","100M","101M","CiTy Tour"],"off":[0,-0.8]}},{"type":"Feature","geometry":{"type":"Point","coordinates":[28.633372,44.168617]},"properties":{"name":"Cap Linie Gara","band":3,"modes":"bus","arr":["5b","43C","43M","100C","100M","101M","CiTy Tour"],"off":[0,-1.9]}},{"type":"Feature","geometry":{"type":"Point","coordinates":[28.633372,44.168617]},"properties":{"line":"5b","mode":"bus","color":"#0059a9","colorDark":"#00294f","band":3,"off":[-6.8,1.1]}},{"type":"Feature","geometry":{"type":"Point","coordinates":[28.633372,44.168617]},"properties":{"line":"43C","mode":"bus","color":"#0059a9","colorDark":"#00294f","band":3,"off":[-3.4,1.1]}},{"type":"Feature","geometry":{"type":"Point","coordinates":[28.633372,44.168617]},"properties":{"line":"43M","mode":"bus","color":"#0059a9","colorDark":"#00294f","band":3,"off":[0,1.1]}},{"type":"Feature","geometry":{"type":"Point","coordinates":[28.633372,44.168617]},"properties":{"line":"100C","mode":"bus","color":"#0059a9","colorDark":"#00294f","band":3,"off":[3.4,1.1]}},{"type":"Feature","geometry":{"type":"Point","coordinates":[28.633372,44.168617]},"properties":{"line":"100M","mode":"bus","color":"#0059a9","colorDark":"#00294f","band":3,"off":[6.8,1.1]}},{"type":"Feature","geometry":{"type":"Point","coordinates":[28.633372,44.168617]},"properties":{"line":"101M","mode":"bus","color":"#0059a9","colorDark":"#00294f","band":3,"off":[-1.7,3.1]}},{"type":"Feature","geometry":{"type":"Point","coordinates":[28.633372,44.168617]},"properties":{"line":"CiTy Tour","mode":"bus","color":"#0059a9","colorDark":"#00294f","band":3,"off":[1.7,3.1]}},{"type":"Feature","geometry":{"type":"Point","coordinates":[28.631839,44.139349]},"properties":{"name":"Arcasului","band":3,"modes":"bus","arr":["2-43"],"off":[0,-0.8]}},{"type":"Feature","geometry":{"type":"Point","coordinates":[28.631839,44.139349]},"properties":{"line":"2-43","mode":"bus","color":"#0059a9","colorDark":"#00294f","band":3,"off":[0,1.1]}},{"type":"Feature","geometry":{"type":"Point","coordinates":[28.606877,44.231409]},"properties":{"name":"Cap Linie Sanatoriu","band":3,"modes":"bus","arr":["3"],"off":[0,-0.8]}},{"type":"Feature","geometry":{"type":"Point","coordinates":[28.606877,44.231409]},"properties":{"line":"3","mode":"bus","color":"#0059a9","colorDark":"#00294f","band":3,"off":[0,1.1]}},{"type":"Feature","geometry":{"type":"Point","coordinates":[28.590553,44.20282]},"properties":{"name":"Targ legume","band":3,"modes":"bus","arr":["3b"],"off":[0,-0.8]}},{"type":"Feature","geometry":{"type":"Point","coordinates":[28.590553,44.20282]},"properties":{"line":"3b","mode":"bus","color":"#0059a9","colorDark":"#00294f","band":3,"off":[0,1.1]}},{"type":"Feature","geometry":{"type":"Point","coordinates":[28.642369,44.215187]},"properties":{"name":"Pescarie","band":3,"modes":"bus","arr":["102"],"off":[0,-0.8]}},{"type":"Feature","geometry":{"type":"Point","coordinates":[28.642369,44.215187]},"properties":{"line":"102","mode":"bus","color":"#0059a9","colorDark":"#00294f","band":3,"off":[0,1.1]}},{"type":"Feature","geometry":{"type":"Point","coordinates":[28.626151,44.215476]},"properties":{"name":"Cap Linie Univ. Ovidius","band":3,"modes":"bus","arr":["5-40"],"off":[0,-0.8]}},{"type":"Feature","geometry":{"type":"Point","coordinates":[28.626151,44.215476]},"properties":{"line":"5-40","mode":"bus","color":"#0059a9","colorDark":"#00294f","band":3,"off":[0,1.1]}},{"type":"Feature","geometry":{"type":"Point","coordinates":[28.621191,44.133878]},"properties":{"name":"Auchan (C.L.)","band":3,"modes":"bus","arr":["13"],"off":[0,-0.8]}},{"type":"Feature","geometry":{"type":"Point","coordinates":[28.621191,44.133878]},"properties":{"line":"13","mode":"bus","color":"#0059a9","colorDark":"#00294f","band":3,"off":[0,1.1]}},{"type":"Feature","geometry":{"type":"Point","coordinates":[28.605986,44.211521]},"properties":{"name":"Carrefour","band":3,"modes":"bus","arr":["13","43C","100C"],"off":[0,-0.8]}},{"type":"Feature","geometry":{"type":"Point","coordinates":[28.605986,44.211521]},"properties":{"line":"13","mode":"bus","color":"#0059a9","colorDark":"#00294f","band":3,"off":[-3.4,1.1]}},{"type":"Feature","geometry":{"type":"Point","coordinates":[28.605986,44.211521]},"properties":{"line":"43C","mode":"bus","color":"#0059a9","colorDark":"#00294f","band":3,"off":[0,1.1]}},{"type":"Feature","geometry":{"type":"Point","coordinates":[28.605986,44.211521]},"properties":{"line":"100C","mode":"bus","color":"#0059a9","colorDark":"#00294f","band":3,"off":[3.4,1.1]}},{"type":"Feature","geometry":{"type":"Point","coordinates":[28.58698,44.159003]},"properties":{"name":"Cap Linie Industriala -imbarcare","band":3,"modes":"bus","arr":["14","101","102"],"off":[0,-0.8]}},{"type":"Feature","geometry":{"type":"Point","coordinates":[28.58698,44.159003]},"properties":{"name":"Cap Linie Industriala - Imbarcare","band":3,"modes":"bus","arr":["14","101","102"],"off":[0,-3]}},{"type":"Feature","geometry":{"type":"Point","coordinates":[28.58698,44.159003]},"properties":{"line":"14","mode":"bus","color":"#0059a9","colorDark":"#00294f","band":3,"off":[-3.4,1.1]}},{"type":"Feature","geometry":{"type":"Point","coordinates":[28.58698,44.159003]},"properties":{"line":"101","mode":"bus","color":"#0059a9","colorDark":"#00294f","band":3,"off":[0,1.1]}},{"type":"Feature","geometry":{"type":"Point","coordinates":[28.58698,44.159003]},"properties":{"line":"102","mode":"bus","color":"#0059a9","colorDark":"#00294f","band":3,"off":[3.4,1.1]}},{"type":"Feature","geometry":{"type":"Point","coordinates":[28.609076,44.200709]},"properties":{"name":"Cap Linie Vivo","band":3,"modes":"bus","arr":["14","43M","101M"],"off":[0,-0.8]}},{"type":"Feature","geometry":{"type":"Point","coordinates":[28.609076,44.200709]},"properties":{"line":"14","mode":"bus","color":"#0059a9","colorDark":"#00294f","band":3,"off":[-3.4,1.1]}},{"type":"Feature","geometry":{"type":"Point","coordinates":[28.609076,44.200709]},"properties":{"line":"43M","mode":"bus","color":"#0059a9","colorDark":"#00294f","band":3,"off":[0,1.1]}},{"type":"Feature","geometry":{"type":"Point","coordinates":[28.609076,44.200709]},"properties":{"line":"101M","mode":"bus","color":"#0059a9","colorDark":"#00294f","band":3,"off":[3.4,1.1]}},{"type":"Feature","geometry":{"type":"Point","coordinates":[28.652159,44.175152]},"properties":{"name":"Cap linie Poarta 2","band":3,"modes":"bus","arr":["48"],"off":[0,-0.8]}},{"type":"Feature","geometry":{"type":"Point","coordinates":[28.652159,44.175152]},"properties":{"line":"48","mode":"bus","color":"#0059a9","colorDark":"#00294f","band":3,"off":[0,1.1]}},{"type":"Feature","geometry":{"type":"Point","coordinates":[28.66425,44.174032]},"properties":{"name":"Portul Tomis","band":3,"modes":"bus","arr":["42"],"off":[0,-0.8]}},{"type":"Feature","geometry":{"type":"Point","coordinates":[28.66425,44.174032]},"properties":{"line":"42","mode":"bus","color":"#0059a9","colorDark":"#00294f","band":3,"off":[0,1.1]}},{"type":"Feature","geometry":{"type":"Point","coordinates":[28.659255,44.171087]},"properties":{"name":"Cap Linie Poarta 1","band":3,"modes":"bus","arr":["44","51","101"],"off":[0,-0.8]}},{"type":"Feature","geometry":{"type":"Point","coordinates":[28.659255,44.171087]},"properties":{"line":"44","mode":"bus","color":"#0059a9","colorDark":"#00294f","band":3,"off":[-3.4,1.1]}},{"type":"Feature","geometry":{"type":"Point","coordinates":[28.659255,44.171087]},"properties":{"line":"51","mode":"bus","color":"#0059a9","colorDark":"#00294f","band":3,"off":[0,1.1]}},{"type":"Feature","geometry":{"type":"Point","coordinates":[28.659255,44.171087]},"properties":{"line":"101","mode":"bus","color":"#0059a9","colorDark":"#00294f","band":3,"off":[3.4,1.1]}},{"type":"Feature","geometry":{"type":"Point","coordinates":[28.621764,44.196984]},"properties":{"name":"Cap Linie Henri Coanda","band":3,"modes":"bus","arr":["44"],"off":[0,-0.8]}},{"type":"Feature","geometry":{"type":"Point","coordinates":[28.621764,44.196984]},"properties":{"line":"44","mode":"bus","color":"#0059a9","colorDark":"#00294f","band":3,"off":[0,1.1]}},{"type":"Feature","geometry":{"type":"Point","coordinates":[28.576616,44.168891]},"properties":{"name":"Cap linie Palas - Debarcare","band":3,"modes":"bus","arr":["48"],"off":[0,-0.8]}},{"type":"Feature","geometry":{"type":"Point","coordinates":[28.576616,44.168891]},"properties":{"line":"48","mode":"bus","color":"#0059a9","colorDark":"#00294f","band":3,"off":[0,1.1]}},{"type":"Feature","geometry":{"type":"Point","coordinates":[28.597095,44.177991]},"properties":{"name":"R.A.J.A.","band":3,"modes":"bus","arr":["51"],"off":[0,-0.8]}},{"type":"Feature","geometry":{"type":"Point","coordinates":[28.597095,44.177991]},"properties":{"line":"51","mode":"bus","color":"#0059a9","colorDark":"#00294f","band":3,"off":[0,1.1]}},{"type":"Feature","geometry":{"type":"Point","coordinates":[28.618427,44.264281]},"properties":{"name":"Cap Linie Mamaia","band":3,"modes":"bus","arr":["100M","CiTy Tour"],"off":[0,-0.8]}},{"type":"Feature","geometry":{"type":"Point","coordinates":[28.618427,44.264281]},"properties":{"line":"100M","mode":"bus","color":"#0059a9","colorDark":"#00294f","band":3,"off":[-1.7,1.1]}},{"type":"Feature","geometry":{"type":"Point","coordinates":[28.618427,44.264281]},"properties":{"line":"CiTy Tour","mode":"bus","color":"#0059a9","colorDark":"#00294f","band":3,"off":[1.7,1.1]}},{"type":"Feature","geometry":{"type":"Point","coordinates":[28.602583,44.151521]},"properties":{"name":"Cap Linie Confort Urban - imbarcare","band":4,"modes":"bus","arr":["1","5-40","5b"],"off":[0,-0.8]}},{"type":"Feature","geometry":{"type":"Point","coordinates":[28.602583,44.151521]},"properties":{"line":"1","mode":"bus","color":"#0059a9","colorDark":"#00294f","band":4,"off":[-3.4,1.1]}},{"type":"Feature","geometry":{"type":"Point","coordinates":[28.602583,44.151521]},"properties":{"line":"5-40","mode":"bus","color":"#0059a9","colorDark":"#00294f","band":4,"off":[0,1.1]}},{"type":"Feature","geometry":{"type":"Point","coordinates":[28.602583,44.151521]},"properties":{"line":"5b","mode":"bus","color":"#0059a9","colorDark":"#00294f","band":4,"off":[3.4,1.1]}},{"type":"Feature","geometry":{"type":"Point","coordinates":[28.627484,44.201029]},"properties":{"name":"Piata Tomis 3","band":4,"modes":"bus","arr":["1"],"off":[0,-0.8]}},{"type":"Feature","geometry":{"type":"Point","coordinates":[28.627484,44.201029]},"properties":{"line":"1","mode":"bus","color":"#0059a9","colorDark":"#00294f","band":4,"off":[0,1.1]}},{"type":"Feature","geometry":{"type":"Point","coordinates":[28.623736,44.211161]},"properties":{"name":"Cap Linie Tomis Nord","band":4,"modes":"bus","arr":["2-43","3","3b","42"],"off":[0,-0.8]}},{"type":"Feature","geometry":{"type":"Point","coordinates":[28.623736,44.211161]},"properties":{"line":"2-43","mode":"bus","color":"#0059a9","colorDark":"#00294f","band":4,"off":[-5.1,1.1]}},{"type":"Feature","geometry":{"type":"Point","coordinates":[28.623736,44.211161]},"properties":{"line":"3","mode":"bus","color":"#0059a9","colorDark":"#00294f","band":4,"off":[-1.7,1.1]}},{"type":"Feature","geometry":{"type":"Point","coordinates":[28.623736,44.211161]},"properties":{"line":"3b","mode":"bus","color":"#0059a9","colorDark":"#00294f","band":4,"off":[1.7,1.1]}},{"type":"Feature","geometry":{"type":"Point","coordinates":[28.623736,44.211161]},"properties":{"line":"42","mode":"bus","color":"#0059a9","colorDark":"#00294f","band":4,"off":[5.1,1.1]}},{"type":"Feature","geometry":{"type":"Point","coordinates":[28.633696,44.168711]},"properties":{"name":"Gara","band":4,"modes":"bus","arr":["5b","101M"],"off":[0,-0.8]}},{"type":"Feature","geometry":{"type":"Point","coordinates":[28.633696,44.168711]},"properties":{"line":"5b","mode":"bus","color":"#0059a9","colorDark":"#00294f","band":4,"off":[-1.7,1.1]}},{"type":"Feature","geometry":{"type":"Point","coordinates":[28.633696,44.168711]},"properties":{"line":"101M","mode":"bus","color":"#0059a9","colorDark":"#00294f","band":4,"off":[1.7,1.1]}},{"type":"Feature","geometry":{"type":"Point","coordinates":[28.631839,44.139349]},"properties":{"name":"Arcasului","band":4,"modes":"bus","arr":["2-43"],"off":[0,-0.8]}},{"type":"Feature","geometry":{"type":"Point","coordinates":[28.631839,44.139349]},"properties":{"line":"2-43","mode":"bus","color":"#0059a9","colorDark":"#00294f","band":4,"off":[0,1.1]}},{"type":"Feature","geometry":{"type":"Point","coordinates":[28.606877,44.231409]},"properties":{"name":"Cap Linie Sanatoriu","band":4,"modes":"bus","arr":["3"],"off":[0,-0.8]}},{"type":"Feature","geometry":{"type":"Point","coordinates":[28.606877,44.231409]},"properties":{"line":"3","mode":"bus","color":"#0059a9","colorDark":"#00294f","band":4,"off":[0,1.1]}},{"type":"Feature","geometry":{"type":"Point","coordinates":[28.590553,44.20282]},"properties":{"name":"Targ legume","band":4,"modes":"bus","arr":["3b"],"off":[0,-0.8]}},{"type":"Feature","geometry":{"type":"Point","coordinates":[28.590553,44.20282]},"properties":{"line":"3b","mode":"bus","color":"#0059a9","colorDark":"#00294f","band":4,"off":[0,1.1]}},{"type":"Feature","geometry":{"type":"Point","coordinates":[28.642369,44.215187]},"properties":{"name":"Pescarie","band":4,"modes":"bus","arr":["102"],"off":[0,-0.8]}},{"type":"Feature","geometry":{"type":"Point","coordinates":[28.642369,44.215187]},"properties":{"line":"102","mode":"bus","color":"#0059a9","colorDark":"#00294f","band":4,"off":[0,1.1]}},{"type":"Feature","geometry":{"type":"Point","coordinates":[28.626151,44.215476]},"properties":{"name":"Cap Linie Univ. Ovidius","band":4,"modes":"bus","arr":["5-40"],"off":[0,-0.8]}},{"type":"Feature","geometry":{"type":"Point","coordinates":[28.626151,44.215476]},"properties":{"line":"5-40","mode":"bus","color":"#0059a9","colorDark":"#00294f","band":4,"off":[0,1.1]}},{"type":"Feature","geometry":{"type":"Point","coordinates":[28.621191,44.133878]},"properties":{"name":"Auchan (C.L.)","band":4,"modes":"bus","arr":["13"],"off":[0,-0.8]}},{"type":"Feature","geometry":{"type":"Point","coordinates":[28.621191,44.133878]},"properties":{"line":"13","mode":"bus","color":"#0059a9","colorDark":"#00294f","band":4,"off":[0,1.1]}},{"type":"Feature","geometry":{"type":"Point","coordinates":[28.605986,44.211521]},"properties":{"name":"Carrefour","band":4,"modes":"bus","arr":["13","43C","100C"],"off":[0,-0.8]}},{"type":"Feature","geometry":{"type":"Point","coordinates":[28.605986,44.211521]},"properties":{"line":"13","mode":"bus","color":"#0059a9","colorDark":"#00294f","band":4,"off":[-3.4,1.1]}},{"type":"Feature","geometry":{"type":"Point","coordinates":[28.605986,44.211521]},"properties":{"line":"43C","mode":"bus","color":"#0059a9","colorDark":"#00294f","band":4,"off":[0,1.1]}},{"type":"Feature","geometry":{"type":"Point","coordinates":[28.605986,44.211521]},"properties":{"line":"100C","mode":"bus","color":"#0059a9","colorDark":"#00294f","band":4,"off":[3.4,1.1]}},{"type":"Feature","geometry":{"type":"Point","coordinates":[28.587344,44.158942]},"properties":{"name":"Cap Linie Industriala -imbarcare","band":4,"modes":"bus","arr":["14","102"],"off":[0,-0.8]}},{"type":"Feature","geometry":{"type":"Point","coordinates":[28.587344,44.158942]},"properties":{"line":"14","mode":"bus","color":"#0059a9","colorDark":"#00294f","band":4,"off":[-1.7,1.1]}},{"type":"Feature","geometry":{"type":"Point","coordinates":[28.587344,44.158942]},"properties":{"line":"102","mode":"bus","color":"#0059a9","colorDark":"#00294f","band":4,"off":[1.7,1.1]}},{"type":"Feature","geometry":{"type":"Point","coordinates":[28.609076,44.200709]},"properties":{"name":"Cap Linie Vivo","band":4,"modes":"bus","arr":["14","43M","101M"],"off":[0,-0.8]}},{"type":"Feature","geometry":{"type":"Point","coordinates":[28.609076,44.200709]},"properties":{"line":"14","mode":"bus","color":"#0059a9","colorDark":"#00294f","band":4,"off":[-3.4,1.1]}},{"type":"Feature","geometry":{"type":"Point","coordinates":[28.609076,44.200709]},"properties":{"line":"43M","mode":"bus","color":"#0059a9","colorDark":"#00294f","band":4,"off":[0,1.1]}},{"type":"Feature","geometry":{"type":"Point","coordinates":[28.609076,44.200709]},"properties":{"line":"101M","mode":"bus","color":"#0059a9","colorDark":"#00294f","band":4,"off":[3.4,1.1]}},{"type":"Feature","geometry":{"type":"Point","coordinates":[28.652159,44.175152]},"properties":{"name":"Cap linie Poarta 2","band":4,"modes":"bus","arr":["48"],"off":[0,-0.8]}},{"type":"Feature","geometry":{"type":"Point","coordinates":[28.652159,44.175152]},"properties":{"line":"48","mode":"bus","color":"#0059a9","colorDark":"#00294f","band":4,"off":[0,1.1]}},{"type":"Feature","geometry":{"type":"Point","coordinates":[28.66425,44.174032]},"properties":{"name":"Portul Tomis","band":4,"modes":"bus","arr":["42"],"off":[0,-0.8]}},{"type":"Feature","geometry":{"type":"Point","coordinates":[28.66425,44.174032]},"properties":{"line":"42","mode":"bus","color":"#0059a9","colorDark":"#00294f","band":4,"off":[0,1.1]}},{"type":"Feature","geometry":{"type":"Point","coordinates":[28.659255,44.171087]},"properties":{"name":"Cap Linie Poarta 1","band":4,"modes":"bus","arr":["44","51","101"],"off":[0,-0.8]}},{"type":"Feature","geometry":{"type":"Point","coordinates":[28.659255,44.171087]},"properties":{"line":"44","mode":"bus","color":"#0059a9","colorDark":"#00294f","band":4,"off":[-3.4,1.1]}},{"type":"Feature","geometry":{"type":"Point","coordinates":[28.659255,44.171087]},"properties":{"line":"51","mode":"bus","color":"#0059a9","colorDark":"#00294f","band":4,"off":[0,1.1]}},{"type":"Feature","geometry":{"type":"Point","coordinates":[28.659255,44.171087]},"properties":{"line":"101","mode":"bus","color":"#0059a9","colorDark":"#00294f","band":4,"off":[3.4,1.1]}},{"type":"Feature","geometry":{"type":"Point","coordinates":[28.633048,44.168523]},"properties":{"name":"Cap Linie Gara","band":4,"modes":"bus","arr":["43C","43M","100C","100M","CiTy Tour"],"off":[0,-0.8]}},{"type":"Feature","geometry":{"type":"Point","coordinates":[28.633048,44.168523]},"properties":{"line":"43C","mode":"bus","color":"#0059a9","colorDark":"#00294f","band":4,"off":[-6.8,1.1]}},{"type":"Feature","geometry":{"type":"Point","coordinates":[28.633048,44.168523]},"properties":{"line":"43M","mode":"bus","color":"#0059a9","colorDark":"#00294f","band":4,"off":[-3.4,1.1]}},{"type":"Feature","geometry":{"type":"Point","coordinates":[28.633048,44.168523]},"properties":{"line":"100C","mode":"bus","color":"#0059a9","colorDark":"#00294f","band":4,"off":[0,1.1]}},{"type":"Feature","geometry":{"type":"Point","coordinates":[28.633048,44.168523]},"properties":{"line":"100M","mode":"bus","color":"#0059a9","colorDark":"#00294f","band":4,"off":[3.4,1.1]}},{"type":"Feature","geometry":{"type":"Point","coordinates":[28.633048,44.168523]},"properties":{"line":"CiTy Tour","mode":"bus","color":"#0059a9","colorDark":"#00294f","band":4,"off":[6.8,1.1]}},{"type":"Feature","geometry":{"type":"Point","coordinates":[28.621764,44.196984]},"properties":{"name":"Cap Linie Henri Coanda","band":4,"modes":"bus","arr":["44"],"off":[0,-0.8]}},{"type":"Feature","geometry":{"type":"Point","coordinates":[28.621764,44.196984]},"properties":{"line":"44","mode":"bus","color":"#0059a9","colorDark":"#00294f","band":4,"off":[0,1.1]}},{"type":"Feature","geometry":{"type":"Point","coordinates":[28.576616,44.168891]},"properties":{"name":"Cap linie Palas - Debarcare","band":4,"modes":"bus","arr":["48"],"off":[0,-0.8]}},{"type":"Feature","geometry":{"type":"Point","coordinates":[28.576616,44.168891]},"properties":{"line":"48","mode":"bus","color":"#0059a9","colorDark":"#00294f","band":4,"off":[0,1.1]}},{"type":"Feature","geometry":{"type":"Point","coordinates":[28.597095,44.177991]},"properties":{"name":"R.A.J.A.","band":4,"modes":"bus","arr":["51"],"off":[0,-0.8]}},{"type":"Feature","geometry":{"type":"Point","coordinates":[28.597095,44.177991]},"properties":{"line":"51","mode":"bus","color":"#0059a9","colorDark":"#00294f","band":4,"off":[0,1.1]}},{"type":"Feature","geometry":{"type":"Point","coordinates":[28.618427,44.264281]},"properties":{"name":"Cap Linie Mamaia","band":4,"modes":"bus","arr":["100M","CiTy Tour"],"off":[0,-0.8]}},{"type":"Feature","geometry":{"type":"Point","coordinates":[28.618427,44.264281]},"properties":{"line":"100M","mode":"bus","color":"#0059a9","colorDark":"#00294f","band":4,"off":[-1.7,1.1]}},{"type":"Feature","geometry":{"type":"Point","coordinates":[28.618427,44.264281]},"properties":{"line":"CiTy Tour","mode":"bus","color":"#0059a9","colorDark":"#00294f","band":4,"off":[1.7,1.1]}},{"type":"Feature","geometry":{"type":"Point","coordinates":[28.586615,44.159063]},"properties":{"name":"Cap Linie Industriala - Imbarcare","band":4,"modes":"bus","arr":["101"],"off":[0,-0.8]}},{"type":"Feature","geometry":{"type":"Point","coordinates":[28.586615,44.159063]},"properties":{"line":"101","mode":"bus","color":"#0059a9","colorDark":"#00294f","band":4,"off":[0,1.1]}}]}