{"type":"FeatureCollection","features":[{"type":"Feature","geometry":{"type":"Point","coordinates":[28.602583,44.151521]},"properties":{"name":"Cap Linie Confort Urban - imbarcare","lines":"1, 5-40, 5b","arr":["1","5-40","5b"],"terminus":1,"mode":"bus","color":"#0059a9","colorDark":"#00294f","angle":317.7,"snapDist":1,"label":1}},{"type":"Feature","geometry":{"type":"Point","coordinates":[28.607356,44.155079]},"properties":{"name":"Gheorghe Marinescu","lines":"1","arr":["1"],"terminus":0,"mode":"bus","color":"#0059a9","colorDark":"#00294f","angle":133,"snapDist":1,"label":1}},{"type":"Feature","geometry":{"type":"Point","coordinates":[28.609631,44.159517]},"properties":{"name":"Piata CET","lines":"1, 13, 101, 101M","arr":["1","13","101","101M"],"terminus":0,"mode":"bus","color":"#0059a9","colorDark":"#00294f","angle":34.5,"snapDist":0,"label":1}},{"type":"Feature","geometry":{"type":"Point","coordinates":[28.604215,44.162186]},"properties":{"name":"Cumpenei","lines":"1, 101M","arr":["1","101M"],"terminus":0,"mode":"bus","color":"#0059a9","colorDark":"#00294f","angle":34.4,"snapDist":4,"label":1}},{"type":"Feature","geometry":{"type":"Point","coordinates":[28.598663,44.164931]},"properties":{"name":"Dobrogea","lines":"1, 101M","arr":["1","101M"],"terminus":0,"mode":"bus","color":"#0059a9","colorDark":"#00294f","angle":35.4,"snapDist":3,"label":1}},{"type":"Feature","geometry":{"type":"Point","coordinates":[28.594663,44.174339]},"properties":{"name":"Alba Iulia","lines":"1, 101M","arr":["1","101M"],"terminus":0,"mode":"bus","color":"#0059a9","colorDark":"#00294f","angle":92.1,"snapDist":3,"label":1}},{"type":"Feature","geometry":{"type":"Point","coordinates":[28.595637,44.177737]},"properties":{"name":"Nicolae Filimon","lines":"1, 101M","arr":["1","101M"],"terminus":0,"mode":"bus","color":"#0059a9","colorDark":"#00294f","angle":106.9,"snapDist":1,"label":1}},{"type":"Feature","geometry":{"type":"Point","coordinates":[28.598549,44.184074]},"properties":{"name":"Crisul Repede","lines":"1, 101M","arr":["1","101M"],"terminus":0,"mode":"bus","color":"#0059a9","colorDark":"#00294f","angle":108.1,"snapDist":3,"label":1}},{"type":"Feature","geometry":{"type":"Point","coordinates":[28.599978,44.187211]},"properties":{"name":"Varianta Ovidiu","lines":"1, 101M","arr":["1","101M"],"terminus":0,"mode":"bus","color":"#0059a9","colorDark":"#00294f","angle":108.1,"snapDist":0,"label":1}},{"type":"Feature","geometry":{"type":"Point","coordinates":[28.601832,44.191137]},"properties":{"name":"Baba Novac","lines":"1, 3b, 101M","arr":["1","3b","101M"],"terminus":0,"mode":"bus","color":"#0059a9","colorDark":"#00294f","angle":109.8,"snapDist":2,"label":1}},{"type":"Feature","geometry":{"type":"Point","coordinates":[28.6053,44.197806]},"properties":{"name":"Metro","lines":"1, 3b, 44, 101M","arr":["1","3b","44","101M"],"terminus":0,"mode":"bus","color":"#0059a9","colorDark":"#00294f","angle":111.1,"snapDist":1,"label":1}},{"type":"Feature","geometry":{"type":"Point","coordinates":[28.607407,44.200283]},"properties":{"name":"Vivo","lines":"1, 3b, 44","arr":["1","3b","44"],"terminus":0,"mode":"bus","color":"#0059a9","colorDark":"#00294f","angle":126.4,"snapDist":1,"label":1}},{"type":"Feature","geometry":{"type":"Point","coordinates":[28.611059,44.203841]},"properties":{"name":"Sala Polivalenta","lines":"1, 3b, 14, 43M","arr":["1","3b","14","43M"],"terminus":0,"mode":"bus","color":"#0059a9","colorDark":"#00294f","angle":125.9,"snapDist":1,"label":1}},{"type":"Feature","geometry":{"type":"Point","coordinates":[28.613313,44.206048]},"properties":{"name":"Cismea","lines":"1, 3b, 14, 43M","arr":["1","3b","14","43M"],"terminus":0,"mode":"bus","color":"#0059a9","colorDark":"#00294f","angle":124.8,"snapDist":1,"label":1}},{"type":"Feature","geometry":{"type":"Point","coordinates":[28.617686,44.206359]},"properties":{"name":"Hortensiei","lines":"1, 3, 3b, 43C, 43M","arr":["1","3","3b","43C","43M"],"terminus":0,"mode":"bus","color":"#0059a9","colorDark":"#00294f","angle":222.4,"snapDist":6,"label":1}},{"type":"Feature","geometry":{"type":"Point","coordinates":[28.621666,44.203785]},"properties":{"name":"Tulcei","lines":"1, 3, 3b, 43C, 43M","arr":["1","3","3b","43C","43M"],"terminus":0,"mode":"bus","color":"#0059a9","colorDark":"#00294f","angle":221.6,"snapDist":6,"label":1}},{"type":"Feature","geometry":{"type":"Point","coordinates":[28.623494,44.203559]},"properties":{"name":"Suceava","lines":"1, 2-43, 3b, 42","arr":["1","2-43","3b","42"],"terminus":0,"mode":"bus","color":"#0059a9","colorDark":"#00294f","angle":127.1,"snapDist":3,"label":1}},{"type":"Feature","geometry":{"type":"Point","coordinates":[28.628858,44.209232]},"properties":{"name":"Suceava","lines":"1, 3, 13, 100C, 100M","arr":["1","3","13","100C","100M"],"terminus":0,"mode":"bus","color":"#0059a9","colorDark":"#00294f","angle":264.3,"snapDist":0,"label":1}},{"type":"Feature","geometry":{"type":"Point","coordinates":[28.629971,44.20389]},"properties":{"name":"Sc.Nr.7 Remus Opreanu","lines":"1, 3, 13, 100C, 100M","arr":["1","3","13","100C","100M"],"terminus":0,"mode":"bus","color":"#0059a9","colorDark":"#00294f","angle":259.3,"snapDist":6,"label":1}},{"type":"Feature","geometry":{"type":"Point","coordinates":[28.627484,44.201029]},"properties":{"name":"Piata Tomis 3","lines":"1, 3, 13, 102","arr":["1","3","13","102"],"terminus":1,"mode":"bus","color":"#0059a9","colorDark":"#00294f","angle":316,"snapDist":3,"label":1}},{"type":"Feature","geometry":{"type":"Point","coordinates":[28.622188,44.203458]},"properties":{"name":"Tulcei","lines":"1, 3, 3b, 43C, 43M","arr":["1","3","3b","43C","43M"],"terminus":0,"mode":"bus","color":"#0059a9","colorDark":"#00294f","angle":40.8,"snapDist":2,"label":0}},{"type":"Feature","geometry":{"type":"Point","coordinates":[28.617618,44.206403]},"properties":{"name":"Hortensiei","lines":"1, 3, 3b, 43C, 43M","arr":["1","3","3b","43C","43M"],"terminus":0,"mode":"bus","color":"#0059a9","colorDark":"#00294f","angle":42.4,"snapDist":2,"label":0}},{"type":"Feature","geometry":{"type":"Point","coordinates":[28.613469,44.206208]},"properties":{"name":"Cismea","lines":"1, 3b, 14, 43M","arr":["1","3b","14","43M"],"terminus":0,"mode":"bus","color":"#0059a9","colorDark":"#00294f","angle":304.8,"snapDist":2,"label":0}},{"type":"Feature","geometry":{"type":"Point","coordinates":[28.61105,44.203832]},"properties":{"name":"Sala Polivalenta","lines":"1, 3b, 14, 43M","arr":["1","3b","14","43M"],"terminus":0,"mode":"bus","color":"#0059a9","colorDark":"#00294f","angle":305.9,"snapDist":3,"label":0}},{"type":"Feature","geometry":{"type":"Point","coordinates":[28.606426,44.199304]},"properties":{"name":"Vivo","lines":"1, 3b, 44, 101M","arr":["1","3b","44","101M"],"terminus":0,"mode":"bus","color":"#0059a9","colorDark":"#00294f","angle":304.7,"snapDist":5,"label":0}},{"type":"Feature","geometry":{"type":"Point","coordinates":[28.604882,44.197042]},"properties":{"name":"Metro","lines":"1, 3b, 44, 101M","arr":["1","3b","44","101M"],"terminus":0,"mode":"bus","color":"#0059a9","colorDark":"#00294f","angle":291.7,"snapDist":10,"label":0}},{"type":"Feature","geometry":{"type":"Point","coordinates":[28.601894,44.191636]},"properties":{"name":"Baba Novac","lines":"1, 3b, 101M","arr":["1","3b","101M"],"terminus":0,"mode":"bus","color":"#0059a9","colorDark":"#00294f","angle":289.5,"snapDist":4,"label":0}},{"type":"Feature","geometry":{"type":"Point","coordinates":[28.599761,44.186909]},"properties":{"name":"Varianta Ovidiu","lines":"1, 101M","arr":["1","101M"],"terminus":0,"mode":"bus","color":"#0059a9","colorDark":"#00294f","angle":287.8,"snapDist":3,"label":0}},{"type":"Feature","geometry":{"type":"Point","coordinates":[28.598678,44.184507]},"properties":{"name":"Crisul Repede","lines":"1, 101M","arr":["1","101M"],"terminus":0,"mode":"bus","color":"#0059a9","colorDark":"#00294f","angle":288.8,"snapDist":1,"label":0}},{"type":"Feature","geometry":{"type":"Point","coordinates":[28.595421,44.177225]},"properties":{"name":"Nicolae Filimon","lines":"1, 101M","arr":["1","101M"],"terminus":0,"mode":"bus","color":"#0059a9","colorDark":"#00294f","angle":286.7,"snapDist":6,"label":0}},{"type":"Feature","geometry":{"type":"Point","coordinates":[28.594668,44.173587]},"properties":{"name":"Alba Iulia","lines":"1, 101M","arr":["1","101M"],"terminus":0,"mode":"bus","color":"#0059a9","colorDark":"#00294f","angle":266.9,"snapDist":5,"label":0}},{"type":"Feature","geometry":{"type":"Point","coordinates":[28.598913,44.164804]},"properties":{"name":"Dobrogea","lines":"1, 101, 101M","arr":["1","101","101M"],"terminus":0,"mode":"bus","color":"#0059a9","colorDark":"#00294f","angle":215.4,"snapDist":6,"label":0}},{"type":"Feature","geometry":{"type":"Point","coordinates":[28.600691,44.163926]},"properties":{"name":"Medeea","lines":"1, 101, 101M","arr":["1","101","101M"],"terminus":0,"mode":"bus","color":"#0059a9","colorDark":"#00294f","angle":214.2,"snapDist":6,"label":1}},{"type":"Feature","geometry":{"type":"Point","coordinates":[28.606791,44.160916]},"properties":{"name":"Cumpenei","lines":"1, 13, 101, 101M","arr":["1","13","101","101M"],"terminus":0,"mode":"bus","color":"#0059a9","colorDark":"#00294f","angle":214.5,"snapDist":12,"label":1}},{"type":"Feature","geometry":{"type":"Point","coordinates":[28.610439,44.159121]},"properties":{"name":"Piata CET","lines":"1, 13, 101, 101M","arr":["1","13","101","101M"],"terminus":0,"mode":"bus","color":"#0059a9","colorDark":"#00294f","angle":214.3,"snapDist":4,"label":0}},{"type":"Feature","geometry":{"type":"Point","coordinates":[28.606772,44.15463]},"properties":{"name":"Gheorghe Marinescu","lines":"1","arr":["1"],"terminus":0,"mode":"bus","color":"#0059a9","colorDark":"#00294f","angle":313.1,"snapDist":4,"label":0}},{"type":"Feature","geometry":{"type":"Point","coordinates":[28.602609,44.151539]},"properties":{"name":"Cap Linie Confort Urban – debarcare","lines":"1, 5-40, 5b","arr":["1","5-40","5b"],"terminus":0,"mode":"bus","color":"#0059a9","colorDark":"#00294f","angle":317.7,"snapDist":2,"label":1}},{"type":"Feature","geometry":{"type":"Point","coordinates":[28.623736,44.211161]},"properties":{"name":"Cap Linie Tomis Nord","lines":"2-43, 3, 3b, 42","arr":["2-43","3","3b","42"],"terminus":1,"mode":"bus","color":"#0059a9","colorDark":"#00294f","angle":36.8,"snapDist":1,"label":1}},{"type":"Feature","geometry":{"type":"Point","coordinates":[28.620318,44.209113]},"properties":{"name":"Sc. Nr 38 Dimitrie Cantemir","lines":"2-43, 3, 3b, 42","arr":["2-43","3","3b","42"],"terminus":0,"mode":"bus","color":"#0059a9","colorDark":"#00294f","angle":305.7,"snapDist":4,"label":1}},{"type":"Feature","geometry":{"type":"Point","coordinates":[28.623503,44.205052]},"properties":{"name":"Brotacei","lines":"2-43, 3, 3b, 42","arr":["2-43","3","3b","42"],"terminus":0,"mode":"bus","color":"#0059a9","colorDark":"#00294f","angle":223.9,"snapDist":5,"label":1}},{"type":"Feature","geometry":{"type":"Point","coordinates":[28.624532,44.201891]},"properties":{"name":"Zmeurei","lines":"2-43, 3, 42, 43C, 43M","arr":["2-43","3","42","43C","43M"],"terminus":0,"mode":"bus","color":"#0059a9","colorDark":"#00294f","angle":222.7,"snapDist":6,"label":1}},{"type":"Feature","geometry":{"type":"Point","coordinates":[28.628276,44.199417]},"properties":{"name":"Tomis 3","lines":"2-43, 42, 43C, 43M","arr":["2-43","42","43C","43M"],"terminus":0,"mode":"bus","color":"#0059a9","colorDark":"#00294f","angle":221.9,"snapDist":6,"label":1}},{"type":"Feature","geometry":{"type":"Point","coordinates":[28.633308,44.196118]},"properties":{"name":"Dacia","lines":"2-43, 42, 43C, 43M","arr":["2-43","42","43C","43M"],"terminus":0,"mode":"bus","color":"#0059a9","colorDark":"#00294f","angle":221.4,"snapDist":3,"label":1}},{"type":"Feature","geometry":{"type":"Point","coordinates":[28.639418,44.191754]},"properties":{"name":"Liceul Teh. Tomis","lines":"2-43, 42, 43C, 43M","arr":["2-43","42","43C","43M"],"terminus":0,"mode":"bus","color":"#0059a9","colorDark":"#00294f","angle":238.3,"snapDist":8,"label":1}},{"type":"Feature","geometry":{"type":"Point","coordinates":[28.6425,44.188169]},"properties":{"name":"Spitalul Judetean","lines":"2-43, 42, 43C, 43M","arr":["2-43","42","43C","43M"],"terminus":0,"mode":"bus","color":"#0059a9","colorDark":"#00294f","angle":238.7,"snapDist":2,"label":1}},{"type":"Feature","geometry":{"type":"Point","coordinates":[28.644905,44.185516]},"properties":{"name":"Calarasi","lines":"2-43, 42, 43C, 43M","arr":["2-43","42","43C","43M"],"terminus":0,"mode":"bus","color":"#0059a9","colorDark":"#00294f","angle":234.8,"snapDist":4,"label":1}},{"type":"Feature","geometry":{"type":"Point","coordinates":[28.646752,44.183632]},"properties":{"name":"Tudor Vladimirescu","lines":"2-43, 5-40, 43C, 43M, CiTy Tour","arr":["2-43","5-40","43C","43M","CiTy Tour"],"terminus":0,"mode":"bus","color":"#0059a9","colorDark":"#00294f","angle":234.6,"snapDist":4,"label":1}},{"type":"Feature","geometry":{"type":"Point","coordinates":[28.650041,44.180308]},"properties":{"name":"Parc Oleg Danovski","lines":"2-43, 5-40, 43C, 43M, CiTy Tour","arr":["2-43","5-40","43C","43M","CiTy Tour"],"terminus":0,"mode":"bus","color":"#0059a9","colorDark":"#00294f","angle":233.8,"snapDist":3,"label":1}},{"type":"Feature","geometry":{"type":"Point","coordinates":[28.6498,44.177597]},"properties":{"name":"Parcul Arheologic","lines":"2-43, 5-40, 43C, 43M, CiTy Tour","arr":["2-43","5-40","43C","43M","CiTy Tour"],"terminus":0,"mode":"bus","color":"#0059a9","colorDark":"#00294f","angle":325.6,"snapDist":3,"label":1}},{"type":"Feature","geometry":{"type":"Point","coordinates":[28.645829,44.175649]},"properties":{"name":"C.Cultural Jean Constantin","lines":"2-43, 5-40, 43C, 43M, CiTy Tour","arr":["2-43","5-40","43C","43M","CiTy Tour"],"terminus":0,"mode":"bus","color":"#0059a9","colorDark":"#00294f","angle":325.6,"snapDist":3,"label":1}},{"type":"Feature","geometry":{"type":"Point","coordinates":[28.641686,44.17348]},"properties":{"name":"Atelierelor","lines":"2-43, 5-40, 43C, 43M, 48, 101, CiTy Tour","arr":["2-43","5-40","43C","43M","48","101","CiTy Tour"],"terminus":0,"mode":"bus","color":"#0059a9","colorDark":"#00294f","angle":313.4,"snapDist":3,"label":1}},{"type":"Feature","geometry":{"type":"Point","coordinates":[28.638795,44.171262]},"properties":{"name":"Sp.Clinic de Boli Infect.","lines":"2-43, 5-40, 43C, 43M, 101, CiTy Tour","arr":["2-43","5-40","43C","43M","101","CiTy Tour"],"terminus":0,"mode":"bus","color":"#0059a9","colorDark":"#00294f","angle":313,"snapDist":2,"label":1}},{"type":"Feature","geometry":{"type":"Point","coordinates":[28.633696,44.168711]},"properties":{"name":"Gara","lines":"2-43, 5-40, 5b, 101, 101M","arr":["2-43","5-40","5b","101","101M"],"terminus":1,"mode":"bus","color":"#0059a9","colorDark":"#00294f","angle":247.9,"snapDist":9,"label":1}},{"type":"Feature","geometry":{"type":"Point","coordinates":[28.633219,44.165007]},"properties":{"name":"Stadionul Portul","lines":"2-43, 5-40, 5b, CiTy Tour","arr":["2-43","5-40","5b","CiTy Tour"],"terminus":0,"mode":"bus","color":"#0059a9","colorDark":"#00294f","angle":292.1,"snapDist":1,"label":1}},{"type":"Feature","geometry":{"type":"Point","coordinates":[28.63222,44.16273]},"properties":{"name":"C.A.Rosetti","lines":"2-43, 5-40, 5b, CiTy Tour","arr":["2-43","5-40","5b","CiTy Tour"],"terminus":0,"mode":"bus","color":"#0059a9","colorDark":"#00294f","angle":282.3,"snapDist":0,"label":1}},{"type":"Feature","geometry":{"type":"Point","coordinates":[28.631617,44.15897]},"properties":{"name":"Far","lines":"2-43, 5-40, 5b, CiTy Tour","arr":["2-43","5-40","5b","CiTy Tour"],"terminus":0,"mode":"bus","color":"#0059a9","colorDark":"#00294f","angle":271.7,"snapDist":0,"label":1}},{"type":"Feature","geometry":{"type":"Point","coordinates":[28.630942,44.154042]},"properties":{"name":"Timonei","lines":"2-43","arr":["2-43"],"terminus":0,"mode":"bus","color":"#0059a9","colorDark":"#00294f","angle":286.1,"snapDist":6,"label":1}},{"type":"Feature","geometry":{"type":"Point","coordinates":[28.629941,44.151944]},"properties":{"name":"Plopilor","lines":"2-43","arr":["2-43"],"terminus":0,"mode":"bus","color":"#0059a9","colorDark":"#00294f","angle":289.8,"snapDist":6,"label":1}},{"type":"Feature","geometry":{"type":"Point","coordinates":[28.62859,44.149257]},"properties":{"name":"Petru Cercel","lines":"2-43","arr":["2-43"],"terminus":0,"mode":"bus","color":"#0059a9","colorDark":"#00294f","angle":289.8,"snapDist":5,"label":1}},{"type":"Feature","geometry":{"type":"Point","coordinates":[28.631266,44.146047]},"properties":{"name":"Col. Nat. Militar A. Ioan Cuza","lines":"2-43","arr":["2-43"],"terminus":0,"mode":"bus","color":"#0059a9","colorDark":"#00294f","angle":256.3,"snapDist":6,"label":1}},{"type":"Feature","geometry":{"type":"Point","coordinates":[28.631884,44.143105]},"properties":{"name":"Brizei","lines":"2-43","arr":["2-43"],"terminus":0,"mode":"bus","color":"#0059a9","colorDark":"#00294f","angle":270,"snapDist":6,"label":1}},{"type":"Feature","geometry":{"type":"Point","coordinates":[28.631839,44.139349]},"properties":{"name":"Arcasului","lines":"2-43","arr":["2-43"],"terminus":1,"mode":"bus","color":"#0059a9","colorDark":"#00294f","angle":271,"snapDist":4,"label":1}},{"type":"Feature","geometry":{"type":"Point","coordinates":[28.628747,44.140452]},"properties":{"name":"Viorelelor","lines":"2-43","arr":["2-43"],"terminus":0,"mode":"bus","color":"#0059a9","colorDark":"#00294f","angle":60.2,"snapDist":4,"label":1}},{"type":"Feature","geometry":{"type":"Point","coordinates":[28.627969,44.142588]},"properties":{"name":"Lucian Blaga","lines":"2-43","arr":["2-43"],"terminus":0,"mode":"bus","color":"#0059a9","colorDark":"#00294f","angle":79,"snapDist":4,"label":1}},{"type":"Feature","geometry":{"type":"Point","coordinates":[28.627115,44.145683]},"properties":{"name":"Col. Nat. Militar „Al. Ioan Cuza”","lines":"2-43","arr":["2-43"],"terminus":0,"mode":"bus","color":"#0059a9","colorDark":"#00294f","angle":79.3,"snapDist":4,"label":1}},{"type":"Feature","geometry":{"type":"Point","coordinates":[28.628396,44.148862]},"properties":{"name":"Petru Cercel","lines":"2-43","arr":["2-43"],"terminus":0,"mode":"bus","color":"#0059a9","colorDark":"#00294f","angle":109.3,"snapDist":3,"label":0}},{"type":"Feature","geometry":{"type":"Point","coordinates":[28.630036,44.152132]},"properties":{"name":"Plopilor","lines":"2-43","arr":["2-43"],"terminus":0,"mode":"bus","color":"#0059a9","colorDark":"#00294f","angle":109.8,"snapDist":3,"label":0}},{"type":"Feature","geometry":{"type":"Point","coordinates":[28.630943,44.154043]},"properties":{"name":"Timonei","lines":"2-43","arr":["2-43"],"terminus":0,"mode":"bus","color":"#0059a9","colorDark":"#00294f","angle":106.1,"snapDist":3,"label":0}},{"type":"Feature","geometry":{"type":"Point","coordinates":[28.631616,44.158941]},"properties":{"name":"Far","lines":"2-43, 5-40, 5b","arr":["2-43","5-40","5b"],"terminus":0,"mode":"bus","color":"#0059a9","colorDark":"#00294f","angle":91.7,"snapDist":4,"label":0}},{"type":"Feature","geometry":{"type":"Point","coordinates":[28.632195,44.162649]},"properties":{"name":"C.A.Rosetti","lines":"2-43, 5-40, 5b","arr":["2-43","5-40","5b"],"terminus":0,"mode":"bus","color":"#0059a9","colorDark":"#00294f","angle":102.3,"snapDist":3,"label":0}},{"type":"Feature","geometry":{"type":"Point","coordinates":[28.633423,44.165365]},"properties":{"name":"Stadionul Portul","lines":"2-43, 5-40, 5b","arr":["2-43","5-40","5b"],"terminus":0,"mode":"bus","color":"#0059a9","colorDark":"#00294f","angle":112.3,"snapDist":4,"label":0}},{"type":"Feature","geometry":{"type":"Point","coordinates":[28.633952,44.169412]},"properties":{"name":"Parc Ferdinand","lines":"2-43, 5-40","arr":["2-43","5-40"],"terminus":0,"mode":"bus","color":"#0059a9","colorDark":"#00294f","angle":157.2,"snapDist":1,"label":1}},{"type":"Feature","geometry":{"type":"Point","coordinates":[28.63826,44.170866]},"properties":{"name":"Sp.Clinic de Boli Infect.","lines":"2-43, 5-40, 43C, 43M, 101","arr":["2-43","5-40","43C","43M","101"],"terminus":0,"mode":"bus","color":"#0059a9","colorDark":"#00294f","angle":136.3,"snapDist":0,"label":0}},{"type":"Feature","geometry":{"type":"Point","coordinates":[28.641799,44.173566]},"properties":{"name":"Atelierelor","lines":"2-43, 5-40, 43C, 43M, 48, 101","arr":["2-43","5-40","43C","43M","48","101"],"terminus":0,"mode":"bus","color":"#0059a9","colorDark":"#00294f","angle":133.5,"snapDist":1,"label":0}},{"type":"Feature","geometry":{"type":"Point","coordinates":[28.644532,44.175013]},"properties":{"name":"C.Cultural Jean C-tin","lines":"2-43, 5-40, 43C, 43M, 48, 101","arr":["2-43","5-40","43C","43M","48","101"],"terminus":0,"mode":"bus","color":"#0059a9","colorDark":"#00294f","angle":145.6,"snapDist":0,"label":1}},{"type":"Feature","geometry":{"type":"Point","coordinates":[28.649002,44.177206]},"properties":{"name":"Fantasio","lines":"2-43, 5-40, 43C, 43M","arr":["2-43","5-40","43C","43M"],"terminus":0,"mode":"bus","color":"#0059a9","colorDark":"#00294f","angle":145.6,"snapDist":0,"label":1}},{"type":"Feature","geometry":{"type":"Point","coordinates":[28.653014,44.179175]},"properties":{"name":"Muzeul de Arta","lines":"2-43, 5-40, 43C, 43M","arr":["2-43","5-40","43C","43M"],"terminus":0,"mode":"bus","color":"#0059a9","colorDark":"#00294f","angle":145.7,"snapDist":4,"label":1}},{"type":"Feature","geometry":{"type":"Point","coordinates":[28.649572,44.182883]},"properties":{"name":"Biblioteca Judeteana","lines":"2-43, 5-40, 43C, 43M, CiTy Tour","arr":["2-43","5-40","43C","43M","CiTy Tour"],"terminus":0,"mode":"bus","color":"#0059a9","colorDark":"#00294f","angle":49.4,"snapDist":0,"label":1}},{"type":"Feature","geometry":{"type":"Point","coordinates":[28.645723,44.186065]},"properties":{"name":"Capitol","lines":"2-43, 42, 43C, 43M","arr":["2-43","42","43C","43M"],"terminus":0,"mode":"bus","color":"#0059a9","colorDark":"#00294f","angle":48.1,"snapDist":2,"label":1}},{"type":"Feature","geometry":{"type":"Point","coordinates":[28.643182,44.188604]},"properties":{"name":"Spitalul Judetean","lines":"2-43, 42, 43C, 43M","arr":["2-43","42","43C","43M"],"terminus":0,"mode":"bus","color":"#0059a9","colorDark":"#00294f","angle":58,"snapDist":0,"label":0}},{"type":"Feature","geometry":{"type":"Point","coordinates":[28.638087,44.193009]},"properties":{"name":"Liceul Tehnologic Tomis","lines":"2-43, 42, 43C, 43M","arr":["2-43","42","43C","43M"],"terminus":0,"mode":"bus","color":"#0059a9","colorDark":"#00294f","angle":43.9,"snapDist":1,"label":1}},{"type":"Feature","geometry":{"type":"Point","coordinates":[28.632875,44.196392]},"properties":{"name":"Dacia","lines":"2-43, 42, 43C, 43M","arr":["2-43","42","43C","43M"],"terminus":0,"mode":"bus","color":"#0059a9","colorDark":"#00294f","angle":41.4,"snapDist":2,"label":0}},{"type":"Feature","geometry":{"type":"Point","coordinates":[28.627691,44.199798]},"properties":{"name":"Tomis 3","lines":"2-43, 42, 43C, 43M","arr":["2-43","42","43C","43M"],"terminus":0,"mode":"bus","color":"#0059a9","colorDark":"#00294f","angle":42.7,"snapDist":2,"label":0}},{"type":"Feature","geometry":{"type":"Point","coordinates":[28.623638,44.20496]},"properties":{"name":"Brotacei","lines":"2-43, 3, 3b, 42","arr":["2-43","3","3b","42"],"terminus":0,"mode":"bus","color":"#0059a9","colorDark":"#00294f","angle":44.3,"snapDist":1,"label":0}},{"type":"Feature","geometry":{"type":"Point","coordinates":[28.623224,44.208792]},"properties":{"name":"Scoala Nr. 29 Mihai Viteazul","lines":"2-43, 3, 3b, 42","arr":["2-43","3","3b","42"],"terminus":0,"mode":"bus","color":"#0059a9","colorDark":"#00294f","angle":110,"snapDist":3,"label":1}},{"type":"Feature","geometry":{"type":"Point","coordinates":[28.61187,44.210875]},"properties":{"name":"Sere","lines":"3, 13, 43C, 100C","arr":["3","13","43C","100C"],"terminus":0,"mode":"bus","color":"#0059a9","colorDark":"#00294f","angle":45.3,"snapDist":1,"label":1}},{"type":"Feature","geometry":{"type":"Point","coordinates":[28.603079,44.217219]},"properties":{"name":"Barbu Catargiu","lines":"3","arr":["3"],"terminus":0,"mode":"bus","color":"#0059a9","colorDark":"#00294f","angle":44.4,"snapDist":3,"label":1}},{"type":"Feature","geometry":{"type":"Point","coordinates":[28.597542,44.221182]},"properties":{"name":"Tomis Plus","lines":"3","arr":["3"],"terminus":0,"mode":"bus","color":"#0059a9","colorDark":"#00294f","angle":43.9,"snapDist":2,"label":1}},{"type":"Feature","geometry":{"type":"Point","coordinates":[28.592489,44.22508]},"properties":{"name":"Socului","lines":"3","arr":["3"],"terminus":0,"mode":"bus","color":"#0059a9","colorDark":"#00294f","angle":135.5,"snapDist":5,"label":1}},{"type":"Feature","geometry":{"type":"Point","coordinates":[28.595658,44.22731]},"properties":{"name":"Recoltei","lines":"3","arr":["3"],"terminus":0,"mode":"bus","color":"#0059a9","colorDark":"#00294f","angle":135.5,"snapDist":1,"label":1}},{"type":"Feature","geometry":{"type":"Point","coordinates":[28.597124,44.228852]},"properties":{"name":"Alexandru Sahia","lines":"3","arr":["3"],"terminus":0,"mode":"bus","color":"#0059a9","colorDark":"#00294f","angle":97.7,"snapDist":2,"label":1}},{"type":"Feature","geometry":{"type":"Point","coordinates":[28.598924,44.231918]},"properties":{"name":"Scoala Nr.14","lines":"3","arr":["3"],"terminus":0,"mode":"bus","color":"#0059a9","colorDark":"#00294f","angle":192,"snapDist":4,"label":1}},{"type":"Feature","geometry":{"type":"Point","coordinates":[28.603587,44.231205]},"properties":{"name":"Santinelei","lines":"3","arr":["3"],"terminus":0,"mode":"bus","color":"#0059a9","colorDark":"#00294f","angle":181.3,"snapDist":4,"label":1}},{"type":"Feature","geometry":{"type":"Point","coordinates":[28.606877,44.231409]},"properties":{"name":"Cap Linie Sanatoriu","lines":"3","arr":["3"],"terminus":1,"mode":"bus","color":"#0059a9","colorDark":"#00294f","angle":343.8,"snapDist":2,"label":1}},{"type":"Feature","geometry":{"type":"Point","coordinates":[28.602749,44.231214]},"properties":{"name":"Santinelei","lines":"3","arr":["3"],"terminus":0,"mode":"bus","color":"#0059a9","colorDark":"#00294f","angle":0.4,"snapDist":1,"label":0}},{"type":"Feature","geometry":{"type":"Point","coordinates":[28.599767,44.23161]},"properties":{"name":"Scoala nr.14","lines":"3","arr":["3"],"terminus":0,"mode":"bus","color":"#0059a9","colorDark":"#00294f","angle":275.9,"snapDist":3,"label":1}},{"type":"Feature","geometry":{"type":"Point","coordinates":[28.5995,44.229217]},"properties":{"name":"Dumbraveni","lines":"3","arr":["3"],"terminus":0,"mode":"bus","color":"#0059a9","colorDark":"#00294f","angle":274.1,"snapDist":5,"label":1}},{"type":"Feature","geometry":{"type":"Point","coordinates":[28.599129,44.225934]},"properties":{"name":"Lebedei","lines":"3","arr":["3"],"terminus":0,"mode":"bus","color":"#0059a9","colorDark":"#00294f","angle":274.7,"snapDist":4,"label":1}},{"type":"Feature","geometry":{"type":"Point","coordinates":[28.598641,44.222187]},"properties":{"name":"Lucian Blaga","lines":"3","arr":["3"],"terminus":0,"mode":"bus","color":"#0059a9","colorDark":"#00294f","angle":276,"snapDist":4,"label":1}},{"type":"Feature","geometry":{"type":"Point","coordinates":[28.597721,44.220418]},"properties":{"name":"Krakovia","lines":"3","arr":["3"],"terminus":0,"mode":"bus","color":"#0059a9","colorDark":"#00294f","angle":330.2,"snapDist":2,"label":1}},{"type":"Feature","geometry":{"type":"Point","coordinates":[28.595959,44.218028]},"properties":{"name":"Napoli","lines":"3","arr":["3"],"terminus":0,"mode":"bus","color":"#0059a9","colorDark":"#00294f","angle":224.9,"snapDist":5,"label":1}},{"type":"Feature","geometry":{"type":"Point","coordinates":[28.598878,44.220135]},"properties":{"name":"Tomis Plus","lines":"3","arr":["3"],"terminus":0,"mode":"bus","color":"#0059a9","colorDark":"#00294f","angle":223.9,"snapDist":2,"label":0}},{"type":"Feature","geometry":{"type":"Point","coordinates":[28.604665,44.215978]},"properties":{"name":"Tom","lines":"3","arr":["3"],"terminus":0,"mode":"bus","color":"#0059a9","colorDark":"#00294f","angle":225,"snapDist":4,"label":1}},{"type":"Feature","geometry":{"type":"Point","coordinates":[28.61125,44.211219]},"properties":{"name":"Constanta","lines":"3, 13, 43C, 100C","arr":["3","13","43C","100C"],"terminus":0,"mode":"bus","color":"#0059a9","colorDark":"#00294f","angle":223.5,"snapDist":3,"label":1}},{"type":"Feature","geometry":{"type":"Point","coordinates":[28.627306,44.200713]},"properties":{"name":"Piata Tomis 3","lines":"3, 13, 102","arr":["3","13","102"],"terminus":0,"mode":"bus","color":"#0059a9","colorDark":"#00294f","angle":132.4,"snapDist":3,"label":0}},{"type":"Feature","geometry":{"type":"Point","coordinates":[28.592717,44.19961]},"properties":{"name":"Varianta Ovidiu","lines":"3b","arr":["3b"],"terminus":0,"mode":"bus","color":"#0059a9","colorDark":"#00294f","angle":62,"snapDist":1,"label":1}},{"type":"Feature","geometry":{"type":"Point","coordinates":[28.590553,44.20282]},"properties":{"name":"Targ legume","lines":"3b","arr":["3b"],"terminus":1,"mode":"bus","color":"#0059a9","colorDark":"#00294f","angle":154.8,"snapDist":2,"label":1}},{"type":"Feature","geometry":{"type":"Point","coordinates":[28.592706,44.199625]},"properties":{"name":"Targ","lines":"3b","arr":["3b"],"terminus":0,"mode":"bus","color":"#0059a9","colorDark":"#00294f","angle":242,"snapDist":5,"label":1}},{"type":"Feature","geometry":{"type":"Point","coordinates":[28.605074,44.1508]},"properties":{"name":"Varful cu Dor","lines":"5-40, 5b","arr":["5-40","5b"],"terminus":0,"mode":"bus","color":"#0059a9","colorDark":"#00294f","angle":232.1,"snapDist":5,"label":1}},{"type":"Feature","geometry":{"type":"Point","coordinates":[28.607941,44.148093]},"properties":{"name":"Soseaua din Vii","lines":"5-40, 5b","arr":["5-40","5b"],"terminus":0,"mode":"bus","color":"#0059a9","colorDark":"#00294f","angle":232.6,"snapDist":4,"label":1}},{"type":"Feature","geometry":{"type":"Point","coordinates":[28.610639,44.145547]},"properties":{"name":"Comarnic","lines":"5-40, 5b","arr":["5-40","5b"],"terminus":0,"mode":"bus","color":"#0059a9","colorDark":"#00294f","angle":233.6,"snapDist":5,"label":1}},{"type":"Feature","geometry":{"type":"Point","coordinates":[28.613793,44.143684]},"properties":{"name":"Scoala Nr. 17 Ion Minulescu","lines":"5-40","arr":["5-40"],"terminus":0,"mode":"bus","color":"#0059a9","colorDark":"#00294f","angle":305.7,"snapDist":3,"label":1}},{"type":"Feature","geometry":{"type":"Point","coordinates":[28.6115,44.14094]},"properties":{"name":"Mesterul Manole","lines":"5-40","arr":["5-40"],"terminus":0,"mode":"bus","color":"#0059a9","colorDark":"#00294f","angle":287.7,"snapDist":9,"label":1}},{"type":"Feature","geometry":{"type":"Point","coordinates":[28.614608,44.139217]},"properties":{"name":"Muscatelor","lines":"5-40, 5b","arr":["5-40","5b"],"terminus":0,"mode":"bus","color":"#0059a9","colorDark":"#00294f","angle":197.3,"snapDist":4,"label":1}},{"type":"Feature","geometry":{"type":"Point","coordinates":[28.619287,44.138166]},"properties":{"name":"Soarelui","lines":"5-40, 5b","arr":["5-40","5b"],"terminus":0,"mode":"bus","color":"#0059a9","colorDark":"#00294f","angle":197.6,"snapDist":5,"label":1}},{"type":"Feature","geometry":{"type":"Point","coordinates":[28.618003,44.132312]},"properties":{"name":"Bifurcatie Cumpana","lines":"5-40, 5b","arr":["5-40","5b"],"terminus":0,"mode":"bus","color":"#0059a9","colorDark":"#00294f","angle":109.3,"snapDist":1,"label":1}},{"type":"Feature","geometry":{"type":"Point","coordinates":[28.61997,44.136287]},"properties":{"name":"Constanta Sud","lines":"5-40, 5b, 13","arr":["5-40","5b","13"],"terminus":0,"mode":"bus","color":"#0059a9","colorDark":"#00294f","angle":109.3,"snapDist":1,"label":1}},{"type":"Feature","geometry":{"type":"Point","coordinates":[28.621941,44.14033]},"properties":{"name":"Mugurului","lines":"5-40, 5b, 13","arr":["5-40","5b","13"],"terminus":0,"mode":"bus","color":"#0059a9","colorDark":"#00294f","angle":108.9,"snapDist":0,"label":1}},{"type":"Feature","geometry":{"type":"Point","coordinates":[28.624642,44.145884]},"properties":{"name":"Parc KM 4-5","lines":"5-40, 5b, 101, 101M","arr":["5-40","5b","101","101M"],"terminus":0,"mode":"bus","color":"#0059a9","colorDark":"#00294f","angle":109.2,"snapDist":0,"label":1}},{"type":"Feature","geometry":{"type":"Point","coordinates":[28.628712,44.154089]},"properties":{"name":"Directia Sanitar-Vet.","lines":"5-40, 5b, 101, 101M","arr":["5-40","5b","101","101M"],"terminus":0,"mode":"bus","color":"#0059a9","colorDark":"#00294f","angle":112.2,"snapDist":2,"label":1}},{"type":"Feature","geometry":{"type":"Point","coordinates":[28.647505,44.18591]},"properties":{"name":"B-dul Mamaia","lines":"5-40, CiTy Tour","arr":["5-40","CiTy Tour"],"terminus":0,"mode":"bus","color":"#0059a9","colorDark":"#00294f","angle":147.5,"snapDist":1,"label":1}},{"type":"Feature","geometry":{"type":"Point","coordinates":[28.65109,44.189617]},"properties":{"name":"Spitalul Militar","lines":"5-40, CiTy Tour","arr":["5-40","CiTy Tour"],"terminus":0,"mode":"bus","color":"#0059a9","colorDark":"#00294f","angle":89.9,"snapDist":3,"label":1}},{"type":"Feature","geometry":{"type":"Point","coordinates":[28.650114,44.19315]},"properties":{"name":"Univ.Ovidius","lines":"5-40, 14, CiTy Tour","arr":["5-40","14","CiTy Tour"],"terminus":0,"mode":"bus","color":"#0059a9","colorDark":"#00294f","angle":77.5,"snapDist":2,"label":1}},{"type":"Feature","geometry":{"type":"Point","coordinates":[28.648782,44.196121]},"properties":{"name":"Ion Ratiu","lines":"5-40, 14, CiTy Tour","arr":["5-40","14","CiTy Tour"],"terminus":0,"mode":"bus","color":"#0059a9","colorDark":"#00294f","angle":71.9,"snapDist":0,"label":1}},{"type":"Feature","geometry":{"type":"Point","coordinates":[28.646626,44.200645]},"properties":{"name":"Ciprian Porumbescu","lines":"5-40, CiTy Tour","arr":["5-40","CiTy Tour"],"terminus":0,"mode":"bus","color":"#0059a9","colorDark":"#00294f","angle":71.9,"snapDist":6,"label":1}},{"type":"Feature","geometry":{"type":"Point","coordinates":[28.644233,44.205591]},"properties":{"name":"Delfinariu","lines":"5-40, 102, CiTy Tour","arr":["5-40","102","CiTy Tour"],"terminus":0,"mode":"bus","color":"#0059a9","colorDark":"#00294f","angle":72.9,"snapDist":4,"label":1}},{"type":"Feature","geometry":{"type":"Point","coordinates":[28.643175,44.210793]},"properties":{"name":"Liceul Energetic","lines":"5-40, 14, 102, CiTy Tour","arr":["5-40","14","102","CiTy Tour"],"terminus":0,"mode":"bus","color":"#0059a9","colorDark":"#00294f","angle":85.7,"snapDist":5,"label":1}},{"type":"Feature","geometry":{"type":"Point","coordinates":[28.642369,44.215187]},"properties":{"name":"Pescarie","lines":"5-40, 14, 102, CiTy Tour","arr":["5-40","14","102","CiTy Tour"],"terminus":1,"mode":"bus","color":"#0059a9","colorDark":"#00294f","angle":-107.9,"snapDist":6,"label":1}},{"type":"Feature","geometry":{"type":"Point","coordinates":[28.632767,44.218708]},"properties":{"name":"Sat Vacanta","lines":"5-40, 14, CiTy Tour","arr":["5-40","14","CiTy Tour"],"terminus":0,"mode":"bus","color":"#0059a9","colorDark":"#00294f","angle":17.7,"snapDist":3,"label":1}},{"type":"Feature","geometry":{"type":"Point","coordinates":[28.628931,44.22232]},"properties":{"name":"Aqua Parc","lines":"5-40, 14, 100M, CiTy Tour","arr":["5-40","14","100M","CiTy Tour"],"terminus":0,"mode":"bus","color":"#0059a9","colorDark":"#00294f","angle":83.6,"snapDist":4,"label":1}},{"type":"Feature","geometry":{"type":"Point","coordinates":[28.62898,44.221993]},"properties":{"name":"Aqua Parc","lines":"5-40, 14, 100M, CiTy Tour","arr":["5-40","14","100M","CiTy Tour"],"terminus":0,"mode":"bus","color":"#0059a9","colorDark":"#00294f","angle":263.4,"snapDist":8,"label":0}},{"type":"Feature","geometry":{"type":"Point","coordinates":[28.626151,44.215476]},"properties":{"name":"Cap Linie Univ. Ovidius","lines":"5-40, 13, 14, 100C","arr":["5-40","13","14","100C"],"terminus":1,"mode":"bus","color":"#0059a9","colorDark":"#00294f","angle":315.1,"snapDist":1,"label":1}},{"type":"Feature","geometry":{"type":"Point","coordinates":[28.624412,44.214139]},"properties":{"name":"Campus","lines":"5-40, 13, 14, 100C","arr":["5-40","13","14","100C"],"terminus":0,"mode":"bus","color":"#0059a9","colorDark":"#00294f","angle":135.3,"snapDist":2,"label":1}},{"type":"Feature","geometry":{"type":"Point","coordinates":[28.633711,44.218348]},"properties":{"name":"Sat Vacanta","lines":"5-40, 14, CiTy Tour","arr":["5-40","14","CiTy Tour"],"terminus":0,"mode":"bus","color":"#0059a9","colorDark":"#00294f","angle":197.3,"snapDist":2,"label":0}},{"type":"Feature","geometry":{"type":"Point","coordinates":[28.639393,44.216965]},"properties":{"name":"Pavilion Expozitional","lines":"5-40, 14, CiTy Tour","arr":["5-40","14","CiTy Tour"],"terminus":0,"mode":"bus","color":"#0059a9","colorDark":"#00294f","angle":203.2,"snapDist":4,"label":1}},{"type":"Feature","geometry":{"type":"Point","coordinates":[28.642064,44.21506]},"properties":{"name":"Pescarie","lines":"5-40, 14, 102, CiTy Tour","arr":["5-40","14","102","CiTy Tour"],"terminus":0,"mode":"bus","color":"#0059a9","colorDark":"#00294f","angle":247.7,"snapDist":4,"label":0}},{"type":"Feature","geometry":{"type":"Point","coordinates":[28.642989,44.210775]},"properties":{"name":"Liceul Energetic","lines":"5-40, 102, CiTy Tour","arr":["5-40","102","CiTy Tour"],"terminus":0,"mode":"bus","color":"#0059a9","colorDark":"#00294f","angle":264.6,"snapDist":6,"label":0}},{"type":"Feature","geometry":{"type":"Point","coordinates":[28.643898,44.205953]},"properties":{"name":"Delfinariu","lines":"5-40, 102, CiTy Tour","arr":["5-40","102","CiTy Tour"],"terminus":0,"mode":"bus","color":"#0059a9","colorDark":"#00294f","angle":253.6,"snapDist":5,"label":0}},{"type":"Feature","geometry":{"type":"Point","coordinates":[28.645869,44.201832]},"properties":{"name":"Dragoslavele","lines":"5-40, 14, CiTy Tour","arr":["5-40","14","CiTy Tour"],"terminus":0,"mode":"bus","color":"#0059a9","colorDark":"#00294f","angle":250.9,"snapDist":7,"label":1}},{"type":"Feature","geometry":{"type":"Point","coordinates":[28.647416,44.198621]},"properties":{"name":"Dorobanti","lines":"5-40, 14, CiTy Tour","arr":["5-40","14","CiTy Tour"],"terminus":0,"mode":"bus","color":"#0059a9","colorDark":"#00294f","angle":250.9,"snapDist":7,"label":1}},{"type":"Feature","geometry":{"type":"Point","coordinates":[28.649194,44.194858]},"properties":{"name":"Universitatea Ovidius","lines":"5-40, CiTy Tour","arr":["5-40","CiTy Tour"],"terminus":0,"mode":"bus","color":"#0059a9","colorDark":"#00294f","angle":250.6,"snapDist":4,"label":1}},{"type":"Feature","geometry":{"type":"Point","coordinates":[28.650306,44.191842]},"properties":{"name":"Turda","lines":"5-40, CiTy Tour","arr":["5-40","CiTy Tour"],"terminus":0,"mode":"bus","color":"#0059a9","colorDark":"#00294f","angle":257.6,"snapDist":5,"label":1}},{"type":"Feature","geometry":{"type":"Point","coordinates":[28.648003,44.186287]},"properties":{"name":"B-dul Mamaia","lines":"5-40, CiTy Tour","arr":["5-40","CiTy Tour"],"terminus":0,"mode":"bus","color":"#0059a9","colorDark":"#00294f","angle":330,"snapDist":2,"label":0}},{"type":"Feature","geometry":{"type":"Point","coordinates":[28.628364,44.153435]},"properties":{"name":"Dir. Sanitar-Vet.","lines":"5-40, 5b, 101, 101M","arr":["5-40","5b","101","101M"],"terminus":0,"mode":"bus","color":"#0059a9","colorDark":"#00294f","angle":289.8,"snapDist":0,"label":1}},{"type":"Feature","geometry":{"type":"Point","coordinates":[28.624467,44.145526]},"properties":{"name":"Parc KM 4-5","lines":"5-40, 5b, 101, 101M","arr":["5-40","5b","101","101M"],"terminus":0,"mode":"bus","color":"#0059a9","colorDark":"#00294f","angle":289.6,"snapDist":3,"label":0}},{"type":"Feature","geometry":{"type":"Point","coordinates":[28.621924,44.141778]},"properties":{"name":"Pandurului","lines":"5-40, 13, 101, 101M","arr":["5-40","13","101","101M"],"terminus":0,"mode":"bus","color":"#0059a9","colorDark":"#00294f","angle":23,"snapDist":1,"label":1}},{"type":"Feature","geometry":{"type":"Point","coordinates":[28.618676,44.142767]},"properties":{"name":"Liliacului","lines":"5-40, 13, 101, 101M","arr":["5-40","13","101","101M"],"terminus":0,"mode":"bus","color":"#0059a9","colorDark":"#00294f","angle":23,"snapDist":2,"label":1}},{"type":"Feature","geometry":{"type":"Point","coordinates":[28.613889,44.14423]},"properties":{"name":"Scoala Nr. 17 Ion Minulescu","lines":"5-40","arr":["5-40"],"terminus":0,"mode":"bus","color":"#0059a9","colorDark":"#00294f","angle":23.4,"snapDist":1,"label":0}},{"type":"Feature","geometry":{"type":"Point","coordinates":[28.610387,44.145792]},"properties":{"name":"Comarnic","lines":"5-40, 5b","arr":["5-40","5b"],"terminus":0,"mode":"bus","color":"#0059a9","colorDark":"#00294f","angle":53.6,"snapDist":2,"label":0}},{"type":"Feature","geometry":{"type":"Point","coordinates":[28.608628,44.14745]},"properties":{"name":"Soseaua din Vii","lines":"5-40, 5b","arr":["5-40","5b"],"terminus":0,"mode":"bus","color":"#0059a9","colorDark":"#00294f","angle":52.8,"snapDist":1,"label":0}},{"type":"Feature","geometry":{"type":"Point","coordinates":[28.604904,44.150956]},"properties":{"name":"Varful cu Dor","lines":"5-40, 5b","arr":["5-40","5b"],"terminus":0,"mode":"bus","color":"#0059a9","colorDark":"#00294f","angle":52.2,"snapDist":2,"label":0}},{"type":"Feature","geometry":{"type":"Point","coordinates":[28.608073,44.141871]},"properties":{"name":"Mesteacanului","lines":"5b","arr":["5b"],"terminus":0,"mode":"bus","color":"#0059a9","colorDark":"#00294f","angle":308.7,"snapDist":5,"label":1}},{"type":"Feature","geometry":{"type":"Point","coordinates":[28.605589,44.139512]},"properties":{"name":"Teiului","lines":"5b","arr":["5b"],"terminus":0,"mode":"bus","color":"#0059a9","colorDark":"#00294f","angle":307.2,"snapDist":3,"label":1}},{"type":"Feature","geometry":{"type":"Point","coordinates":[28.607352,44.137063]},"properties":{"name":"Fantanele","lines":"5b","arr":["5b"],"terminus":0,"mode":"bus","color":"#0059a9","colorDark":"#00294f","angle":188.1,"snapDist":4,"label":1}},{"type":"Feature","geometry":{"type":"Point","coordinates":[28.610037,44.137507]},"properties":{"name":"Mesterul Manole","lines":"5b","arr":["5b"],"terminus":0,"mode":"bus","color":"#0059a9","colorDark":"#00294f","angle":106.9,"snapDist":1,"label":1}},{"type":"Feature","geometry":{"type":"Point","coordinates":[28.621917,44.140436]},"properties":{"name":"Mugurului","lines":"5b, 13","arr":["5b","13"],"terminus":0,"mode":"bus","color":"#0059a9","colorDark":"#00294f","angle":289.5,"snapDist":1,"label":0}},{"type":"Feature","geometry":{"type":"Point","coordinates":[28.619384,44.138144]},"properties":{"name":"Soarelui","lines":"5b","arr":["5b"],"terminus":0,"mode":"bus","color":"#0059a9","colorDark":"#00294f","angle":17.4,"snapDist":2,"label":0}},{"type":"Feature","geometry":{"type":"Point","coordinates":[28.614306,44.139285]},"properties":{"name":"Muscatelor","lines":"5b","arr":["5b"],"terminus":0,"mode":"bus","color":"#0059a9","colorDark":"#00294f","angle":17.2,"snapDist":1,"label":0}},{"type":"Feature","geometry":{"type":"Point","coordinates":[28.610031,44.137493]},"properties":{"name":"Mesterul Manole","lines":"5b","arr":["5b"],"terminus":0,"mode":"bus","color":"#0059a9","colorDark":"#00294f","angle":286.9,"snapDist":12,"label":0}},{"type":"Feature","geometry":{"type":"Point","coordinates":[28.60735,44.137063]},"properties":{"name":"Fantanele","lines":"5b","arr":["5b"],"terminus":0,"mode":"bus","color":"#0059a9","colorDark":"#00294f","angle":8.1,"snapDist":2,"label":0}},{"type":"Feature","geometry":{"type":"Point","coordinates":[28.605597,44.139519]},"properties":{"name":"Teiului","lines":"5b","arr":["5b"],"terminus":0,"mode":"bus","color":"#0059a9","colorDark":"#00294f","angle":127.2,"snapDist":5,"label":0}},{"type":"Feature","geometry":{"type":"Point","coordinates":[28.60857,44.142335]},"properties":{"name":"Murgului","lines":"5b","arr":["5b"],"terminus":0,"mode":"bus","color":"#0059a9","colorDark":"#00294f","angle":127.3,"snapDist":3,"label":1}},{"type":"Feature","geometry":{"type":"Point","coordinates":[28.621191,44.133878]},"properties":{"name":"Auchan (C.L.)","lines":"13","arr":["13"],"terminus":1,"mode":"bus","color":"#0059a9","colorDark":"#00294f","angle":103.3,"snapDist":1,"label":1}},{"type":"Feature","geometry":{"type":"Point","coordinates":[28.619781,44.145768]},"properties":{"name":"Nicolae Grindeanu","lines":"13, 101, 101M","arr":["13","101","101M"],"terminus":0,"mode":"bus","color":"#0059a9","colorDark":"#00294f","angle":120.3,"snapDist":4,"label":1}},{"type":"Feature","geometry":{"type":"Point","coordinates":[28.621913,44.148258]},"properties":{"name":"Scoala nr.37","lines":"13, 101, 101M","arr":["13","101","101M"],"terminus":0,"mode":"bus","color":"#0059a9","colorDark":"#00294f","angle":124.7,"snapDist":0,"label":1}},{"type":"Feature","geometry":{"type":"Point","coordinates":[28.622892,44.151674]},"properties":{"name":"Muzeul Militar National","lines":"13, 101, 101M","arr":["13","101","101M"],"terminus":0,"mode":"bus","color":"#0059a9","colorDark":"#00294f","angle":39.2,"snapDist":1,"label":1}},{"type":"Feature","geometry":{"type":"Point","coordinates":[28.618819,44.154111]},"properties":{"name":"Campinei","lines":"13, 101, 101M","arr":["13","101","101M"],"terminus":0,"mode":"bus","color":"#0059a9","colorDark":"#00294f","angle":40.7,"snapDist":2,"label":1}},{"type":"Feature","geometry":{"type":"Point","coordinates":[28.613908,44.157152]},"properties":{"name":"Caraiman","lines":"13, 101, 101M","arr":["13","101","101M"],"terminus":0,"mode":"bus","color":"#0059a9","colorDark":"#00294f","angle":40.6,"snapDist":3,"label":1}},{"type":"Feature","geometry":{"type":"Point","coordinates":[28.607415,44.165129]},"properties":{"name":"Spiru Haret","lines":"13, 14, 102","arr":["13","14","102"],"terminus":0,"mode":"bus","color":"#0059a9","colorDark":"#00294f","angle":117.6,"snapDist":1,"label":1}},{"type":"Feature","geometry":{"type":"Point","coordinates":[28.61011,44.171918]},"properties":{"name":"I.C.Bratianu","lines":"13, 14, 102","arr":["13","14","102"],"terminus":0,"mode":"bus","color":"#0059a9","colorDark":"#00294f","angle":91.7,"snapDist":3,"label":1}},{"type":"Feature","geometry":{"type":"Point","coordinates":[28.61468,44.177315]},"properties":{"name":"Eliberarii","lines":"13, 102","arr":["13","102"],"terminus":0,"mode":"bus","color":"#0059a9","colorDark":"#00294f","angle":123.8,"snapDist":5,"label":1}},{"type":"Feature","geometry":{"type":"Point","coordinates":[28.617778,44.180408]},"properties":{"name":"Sc.Nr. 23 C-tin Brancoveanu","lines":"13, 102","arr":["13","102"],"terminus":0,"mode":"bus","color":"#0059a9","colorDark":"#00294f","angle":118.3,"snapDist":1,"label":1}},{"type":"Feature","geometry":{"type":"Point","coordinates":[28.621082,44.184464]},"properties":{"name":"Baba Novac","lines":"13, 102","arr":["13","102"],"terminus":0,"mode":"bus","color":"#0059a9","colorDark":"#00294f","angle":121,"snapDist":4,"label":1}},{"type":"Feature","geometry":{"type":"Point","coordinates":[28.623336,44.187483]},"properties":{"name":"Izvor","lines":"13, 102","arr":["13","102"],"terminus":0,"mode":"bus","color":"#0059a9","colorDark":"#00294f","angle":118.6,"snapDist":1,"label":1}},{"type":"Feature","geometry":{"type":"Point","coordinates":[28.624294,44.192302]},"properties":{"name":"Semanatorului","lines":"13, 102","arr":["13","102"],"terminus":0,"mode":"bus","color":"#0059a9","colorDark":"#00294f","angle":81.7,"snapDist":1,"label":1}},{"type":"Feature","geometry":{"type":"Point","coordinates":[28.623909,44.194675]},"properties":{"name":"Ghiocel","lines":"13, 102","arr":["13","102"],"terminus":0,"mode":"bus","color":"#0059a9","colorDark":"#00294f","angle":88.2,"snapDist":1,"label":1}},{"type":"Feature","geometry":{"type":"Point","coordinates":[28.630232,44.203335]},"properties":{"name":"Sc. nr. 7 Remus Opreanu","lines":"13, 100C, 100M","arr":["13","100C","100M"],"terminus":0,"mode":"bus","color":"#0059a9","colorDark":"#00294f","angle":78.6,"snapDist":5,"label":1}},{"type":"Feature","geometry":{"type":"Point","coordinates":[28.629019,44.208818]},"properties":{"name":"Suceava","lines":"13, 100C, 100M","arr":["13","100C","100M"],"terminus":0,"mode":"bus","color":"#0059a9","colorDark":"#00294f","angle":82.9,"snapDist":1,"label":0}},{"type":"Feature","geometry":{"type":"Point","coordinates":[28.628581,44.212275]},"properties":{"name":"Dispensarului","lines":"13, 100C, 100M","arr":["13","100C","100M"],"terminus":0,"mode":"bus","color":"#0059a9","colorDark":"#00294f","angle":86.8,"snapDist":1,"label":1}},{"type":"Feature","geometry":{"type":"Point","coordinates":[28.628442,44.214607]},"properties":{"name":"Sat Vacanta","lines":"13, 100C, 100M","arr":["13","100C","100M"],"terminus":0,"mode":"bus","color":"#0059a9","colorDark":"#00294f","angle":88,"snapDist":0,"label":1}},{"type":"Feature","geometry":{"type":"Point","coordinates":[28.621252,44.212032]},"properties":{"name":"Smaraldului","lines":"13, 14, 100C","arr":["13","14","100C"],"terminus":0,"mode":"bus","color":"#0059a9","colorDark":"#00294f","angle":316.3,"snapDist":1,"label":1}},{"type":"Feature","geometry":{"type":"Point","coordinates":[28.617586,44.209524]},"properties":{"name":"Hortensiei","lines":"13, 14, 100C","arr":["13","14","100C"],"terminus":0,"mode":"bus","color":"#0059a9","colorDark":"#00294f","angle":315.4,"snapDist":1,"label":1}},{"type":"Feature","geometry":{"type":"Point","coordinates":[28.60712,44.212299]},"properties":{"name":"Selgros","lines":"13, 43C, 100C","arr":["13","43C","100C"],"terminus":0,"mode":"bus","color":"#0059a9","colorDark":"#00294f","angle":316.2,"snapDist":3,"label":1}},{"type":"Feature","geometry":{"type":"Point","coordinates":[28.605986,44.211521]},"properties":{"name":"Carrefour","lines":"13, 43C, 100C","arr":["13","43C","100C"],"terminus":1,"mode":"bus","color":"#0059a9","colorDark":"#00294f","angle":316.2,"snapDist":6,"label":1}},{"type":"Feature","geometry":{"type":"Point","coordinates":[28.607624,44.212646]},"properties":{"name":"Selgros","lines":"13, 43C, 100C","arr":["13","43C","100C"],"terminus":0,"mode":"bus","color":"#0059a9","colorDark":"#00294f","angle":136.3,"snapDist":0,"label":0}},{"type":"Feature","geometry":{"type":"Point","coordinates":[28.617578,44.209443]},"properties":{"name":"Hortensiei","lines":"13, 14, 100C","arr":["13","14","100C"],"terminus":0,"mode":"bus","color":"#0059a9","colorDark":"#00294f","angle":135.7,"snapDist":2,"label":0}},{"type":"Feature","geometry":{"type":"Point","coordinates":[28.628314,44.215632]},"properties":{"name":"Cap Linie Sat Vacanta","lines":"13, 100C, 100M","arr":["13","100C","100M"],"terminus":0,"mode":"bus","color":"#0059a9","colorDark":"#00294f","angle":267.9,"snapDist":5,"label":1}},{"type":"Feature","geometry":{"type":"Point","coordinates":[28.628563,44.211568]},"properties":{"name":"Dispensarului","lines":"13, 100C, 100M","arr":["13","100C","100M"],"terminus":0,"mode":"bus","color":"#0059a9","colorDark":"#00294f","angle":265.4,"snapDist":1,"label":0}},{"type":"Feature","geometry":{"type":"Point","coordinates":[28.623878,44.196026]},"properties":{"name":"Ghiocel","lines":"13, 102","arr":["13","102"],"terminus":0,"mode":"bus","color":"#0059a9","colorDark":"#00294f","angle":269.9,"snapDist":5,"label":0}},{"type":"Feature","geometry":{"type":"Point","coordinates":[28.624445,44.191537]},"properties":{"name":"Semanatorului","lines":"13, 102","arr":["13","102"],"terminus":0,"mode":"bus","color":"#0059a9","colorDark":"#00294f","angle":262.3,"snapDist":4,"label":0}},{"type":"Feature","geometry":{"type":"Point","coordinates":[28.623822,44.188081]},"properties":{"name":"Izvor","lines":"13, 102","arr":["13","102"],"terminus":0,"mode":"bus","color":"#0059a9","colorDark":"#00294f","angle":300.9,"snapDist":1,"label":0}},{"type":"Feature","geometry":{"type":"Point","coordinates":[28.620434,44.183947]},"properties":{"name":"Baba Novac","lines":"13, 102","arr":["13","102"],"terminus":0,"mode":"bus","color":"#0059a9","colorDark":"#00294f","angle":300.4,"snapDist":5,"label":0}},{"type":"Feature","geometry":{"type":"Point","coordinates":[28.618338,44.181206]},"properties":{"name":"Sc.Nr. 23 C-tin Brancoveanu","lines":"13, 102","arr":["13","102"],"terminus":0,"mode":"bus","color":"#0059a9","colorDark":"#00294f","angle":297.4,"snapDist":6,"label":0}},{"type":"Feature","geometry":{"type":"Point","coordinates":[28.614656,44.17739]},"properties":{"name":"Eliberarii","lines":"13, 102","arr":["13","102"],"terminus":0,"mode":"bus","color":"#0059a9","colorDark":"#00294f","angle":311.9,"snapDist":2,"label":0}},{"type":"Feature","geometry":{"type":"Point","coordinates":[28.610094,44.17146]},"properties":{"name":"I.C.Bratianu","lines":"13, 14, 102","arr":["13","14","102"],"terminus":0,"mode":"bus","color":"#0059a9","colorDark":"#00294f","angle":271.2,"snapDist":2,"label":0}},{"type":"Feature","geometry":{"type":"Point","coordinates":[28.607329,44.165011]},"properties":{"name":"Spiru Haret","lines":"13, 14, 102","arr":["13","14","102"],"terminus":0,"mode":"bus","color":"#0059a9","colorDark":"#00294f","angle":297.6,"snapDist":5,"label":0}},{"type":"Feature","geometry":{"type":"Point","coordinates":[28.613304,44.157521]},"properties":{"name":"Caraiman","lines":"13, 101, 101M","arr":["13","101","101M"],"terminus":0,"mode":"bus","color":"#0059a9","colorDark":"#00294f","angle":220.2,"snapDist":6,"label":0}},{"type":"Feature","geometry":{"type":"Point","coordinates":[28.618308,44.154426]},"properties":{"name":"Campinei","lines":"13, 101, 101M","arr":["13","101","101M"],"terminus":0,"mode":"bus","color":"#0059a9","colorDark":"#00294f","angle":220.7,"snapDist":5,"label":0}},{"type":"Feature","geometry":{"type":"Point","coordinates":[28.623297,44.151258]},"properties":{"name":"Muzeul Militar National","lines":"13, 101, 101M","arr":["13","101","101M"],"terminus":0,"mode":"bus","color":"#0059a9","colorDark":"#00294f","angle":220.5,"snapDist":5,"label":0}},{"type":"Feature","geometry":{"type":"Point","coordinates":[28.621539,44.147864]},"properties":{"name":"Scoala Nr.37","lines":"13","arr":["13"],"terminus":0,"mode":"bus","color":"#0059a9","colorDark":"#00294f","angle":304.1,"snapDist":7,"label":1}},{"type":"Feature","geometry":{"type":"Point","coordinates":[28.620347,44.146604]},"properties":{"name":"Liliacului","lines":"13","arr":["13"],"terminus":0,"mode":"bus","color":"#0059a9","colorDark":"#00294f","angle":300,"snapDist":2,"label":1}},{"type":"Feature","geometry":{"type":"Point","coordinates":[28.618178,44.131626]},"properties":{"name":"Facultativa","lines":"13","arr":["13"],"terminus":0,"mode":"bus","color":"#0059a9","colorDark":"#00294f","angle":184.1,"snapDist":2,"label":1}},{"type":"Feature","geometry":{"type":"Point","coordinates":[28.587344,44.158942]},"properties":{"name":"Cap Linie Industriala -imbarcare","lines":"14, 102","arr":["14","102"],"terminus":1,"mode":"bus","color":"#0059a9","colorDark":"#00294f","angle":172.2,"snapDist":5,"label":1}},{"type":"Feature","geometry":{"type":"Point","coordinates":[28.590437,44.159259]},"properties":{"name":"Celco","lines":"14, 102","arr":["14","102"],"terminus":0,"mode":"bus","color":"#0059a9","colorDark":"#00294f","angle":171.9,"snapDist":5,"label":1}},{"type":"Feature","geometry":{"type":"Point","coordinates":[28.593061,44.159536]},"properties":{"name":"CT BUS S.A.","lines":"14, 102","arr":["14","102"],"terminus":0,"mode":"bus","color":"#0059a9","colorDark":"#00294f","angle":171.6,"snapDist":5,"label":1}},{"type":"Feature","geometry":{"type":"Point","coordinates":[28.596732,44.159925]},"properties":{"name":"Parc Logistic","lines":"14, 102","arr":["14","102"],"terminus":0,"mode":"bus","color":"#0059a9","colorDark":"#00294f","angle":173.2,"snapDist":5,"label":1}},{"type":"Feature","geometry":{"type":"Point","coordinates":[28.604274,44.161107]},"properties":{"name":"Cumpenei","lines":"14, 102","arr":["14","102"],"terminus":0,"mode":"bus","color":"#0059a9","colorDark":"#00294f","angle":118.4,"snapDist":4,"label":0}},{"type":"Feature","geometry":{"type":"Point","coordinates":[28.614957,44.176419]},"properties":{"name":"Dezrobirii","lines":"14, 51","arr":["14","51"],"terminus":0,"mode":"bus","color":"#0059a9","colorDark":"#00294f","angle":213.2,"snapDist":8,"label":1}},{"type":"Feature","geometry":{"type":"Point","coordinates":[28.620354,44.176486]},"properties":{"name":"Dumitru Marinescu","lines":"14, 51","arr":["14","51"],"terminus":0,"mode":"bus","color":"#0059a9","colorDark":"#00294f","angle":174.5,"snapDist":2,"label":1}},{"type":"Feature","geometry":{"type":"Point","coordinates":[28.624532,44.17723]},"properties":{"name":"I.L. Caragiale","lines":"14, 51","arr":["14","51"],"terminus":0,"mode":"bus","color":"#0059a9","colorDark":"#00294f","angle":162.5,"snapDist":1,"label":1}},{"type":"Feature","geometry":{"type":"Point","coordinates":[28.630209,44.178825]},"properties":{"name":"Poporului","lines":"14, 51","arr":["14","51"],"terminus":0,"mode":"bus","color":"#0059a9","colorDark":"#00294f","angle":154.3,"snapDist":1,"label":1}},{"type":"Feature","geometry":{"type":"Point","coordinates":[28.635786,44.180819]},"properties":{"name":"Casa de Cultura","lines":"14, 100C, 100M","arr":["14","100C","100M"],"terminus":0,"mode":"bus","color":"#0059a9","colorDark":"#00294f","angle":87.5,"snapDist":3,"label":1}},{"type":"Feature","geometry":{"type":"Point","coordinates":[28.635403,44.184158]},"properties":{"name":"Colegiul National de Arte","lines":"14, 100C, 100M","arr":["14","100C","100M"],"terminus":0,"mode":"bus","color":"#0059a9","colorDark":"#00294f","angle":82.9,"snapDist":4,"label":1}},{"type":"Feature","geometry":{"type":"Point","coordinates":[28.640831,44.186854]},"properties":{"name":"Enel","lines":"14","arr":["14"],"terminus":0,"mode":"bus","color":"#0059a9","colorDark":"#00294f","angle":151,"snapDist":1,"label":1}},{"type":"Feature","geometry":{"type":"Point","coordinates":[28.647877,44.189778]},"properties":{"name":"Scoala Gimnaziala nr.5","lines":"14","arr":["14"],"terminus":0,"mode":"bus","color":"#0059a9","colorDark":"#00294f","angle":149.9,"snapDist":4,"label":1}},{"type":"Feature","geometry":{"type":"Point","coordinates":[28.65131,44.198929]},"properties":{"name":"Fagetului","lines":"14","arr":["14"],"terminus":0,"mode":"bus","color":"#0059a9","colorDark":"#00294f","angle":67.3,"snapDist":5,"label":1}},{"type":"Feature","geometry":{"type":"Point","coordinates":[28.649742,44.20177]},"properties":{"name":"Scoala Gimnaziala nr.3","lines":"14","arr":["14"],"terminus":0,"mode":"bus","color":"#0059a9","colorDark":"#00294f","angle":68.2,"snapDist":4,"label":1}},{"type":"Feature","geometry":{"type":"Point","coordinates":[28.64825,44.20445]},"properties":{"name":"Tabla Butii","lines":"14","arr":["14"],"terminus":0,"mode":"bus","color":"#0059a9","colorDark":"#00294f","angle":68.5,"snapDist":2,"label":1}},{"type":"Feature","geometry":{"type":"Point","coordinates":[28.647089,44.20654]},"properties":{"name":"Casin","lines":"14","arr":["14"],"terminus":0,"mode":"bus","color":"#0059a9","colorDark":"#00294f","angle":68.4,"snapDist":4,"label":1}},{"type":"Feature","geometry":{"type":"Point","coordinates":[28.646503,44.208522]},"properties":{"name":"Directia Gen. de Asis. Sociala","lines":"14","arr":["14"],"terminus":0,"mode":"bus","color":"#0059a9","colorDark":"#00294f","angle":85.2,"snapDist":1,"label":1}},{"type":"Feature","geometry":{"type":"Point","coordinates":[28.645989,44.21134]},"properties":{"name":"Pescarilor","lines":"14","arr":["14"],"terminus":0,"mode":"bus","color":"#0059a9","colorDark":"#00294f","angle":82.3,"snapDist":5,"label":1}},{"type":"Feature","geometry":{"type":"Point","coordinates":[28.644769,44.213094]},"properties":{"name":"Garda de mediu","lines":"14","arr":["14"],"terminus":0,"mode":"bus","color":"#0059a9","colorDark":"#00294f","angle":25.6,"snapDist":6,"label":1}},{"type":"Feature","geometry":{"type":"Point","coordinates":[28.609076,44.200709]},"properties":{"name":"Cap Linie Vivo","lines":"14, 43M, 101M","arr":["14","43M","101M"],"terminus":1,"mode":"bus","color":"#0059a9","colorDark":"#00294f","angle":30.4,"snapDist":8,"label":1}},{"type":"Feature","geometry":{"type":"Point","coordinates":[28.644233,44.213227]},"properties":{"name":"Garda de mediu","lines":"14","arr":["14"],"terminus":0,"mode":"bus","color":"#0059a9","colorDark":"#00294f","angle":195.8,"snapDist":9,"label":0}},{"type":"Feature","geometry":{"type":"Point","coordinates":[28.645993,44.211316]},"properties":{"name":"Pescarilor","lines":"14","arr":["14"],"terminus":0,"mode":"bus","color":"#0059a9","colorDark":"#00294f","angle":262.3,"snapDist":10,"label":0}},{"type":"Feature","geometry":{"type":"Point","coordinates":[28.64656,44.208032]},"properties":{"name":"Directia Gen. de Asis. Sociala","lines":"14","arr":["14"],"terminus":0,"mode":"bus","color":"#0059a9","colorDark":"#00294f","angle":266.5,"snapDist":9,"label":0}},{"type":"Feature","geometry":{"type":"Point","coordinates":[28.64719,44.205555]},"properties":{"name":"Zorelelor","lines":"14, 102","arr":["14","102"],"terminus":0,"mode":"bus","color":"#0059a9","colorDark":"#00294f","angle":341.5,"snapDist":1,"label":1}},{"type":"Feature","geometry":{"type":"Point","coordinates":[28.642917,44.204438]},"properties":{"name":"Delfinariu","lines":"14, 102","arr":["14","102"],"terminus":0,"mode":"bus","color":"#0059a9","colorDark":"#00294f","angle":319,"snapDist":3,"label":0}},{"type":"Feature","geometry":{"type":"Point","coordinates":[28.644225,44.195115]},"properties":{"name":"Chiliei","lines":"14","arr":["14"],"terminus":0,"mode":"bus","color":"#0059a9","colorDark":"#00294f","angle":329.3,"snapDist":5,"label":1}},{"type":"Feature","geometry":{"type":"Point","coordinates":[28.641415,44.193923]},"properties":{"name":"Laic Voda","lines":"14","arr":["14"],"terminus":0,"mode":"bus","color":"#0059a9","colorDark":"#00294f","angle":329.4,"snapDist":7,"label":1}},{"type":"Feature","geometry":{"type":"Point","coordinates":[28.637869,44.191805]},"properties":{"name":"Petru Vulcan","lines":"14","arr":["14"],"terminus":0,"mode":"bus","color":"#0059a9","colorDark":"#00294f","angle":294.8,"snapDist":7,"label":1}},{"type":"Feature","geometry":{"type":"Point","coordinates":[28.635083,44.188727]},"properties":{"name":"Secerisului","lines":"14","arr":["14"],"terminus":0,"mode":"bus","color":"#0059a9","colorDark":"#00294f","angle":346.7,"snapDist":9,"label":1}},{"type":"Feature","geometry":{"type":"Point","coordinates":[28.635375,44.184309]},"properties":{"name":"Colegiul National de Arte","lines":"14, 100C, 100M","arr":["14","100C","100M"],"terminus":0,"mode":"bus","color":"#0059a9","colorDark":"#00294f","angle":262.1,"snapDist":1,"label":0}},{"type":"Feature","geometry":{"type":"Point","coordinates":[28.635743,44.181527]},"properties":{"name":"Casa de Cultura","lines":"14, 100C, 100M","arr":["14","100C","100M"],"terminus":0,"mode":"bus","color":"#0059a9","colorDark":"#00294f","angle":267.5,"snapDist":1,"label":0}},{"type":"Feature","geometry":{"type":"Point","coordinates":[28.632837,44.179681]},"properties":{"name":"Poporului","lines":"14, 51","arr":["14","51"],"terminus":0,"mode":"bus","color":"#0059a9","colorDark":"#00294f","angle":335.6,"snapDist":2,"label":1}},{"type":"Feature","geometry":{"type":"Point","coordinates":[28.628662,44.178277]},"properties":{"name":"Ion Roata","lines":"14, 51","arr":["14","51"],"terminus":0,"mode":"bus","color":"#0059a9","colorDark":"#00294f","angle":332.3,"snapDist":3,"label":1}},{"type":"Feature","geometry":{"type":"Point","coordinates":[28.624061,44.177123]},"properties":{"name":"I.L. Caragiale","lines":"14, 51","arr":["14","51"],"terminus":0,"mode":"bus","color":"#0059a9","colorDark":"#00294f","angle":342.1,"snapDist":2,"label":0}},{"type":"Feature","geometry":{"type":"Point","coordinates":[28.620779,44.176515]},"properties":{"name":"Dumitru Marinescu","lines":"14, 51","arr":["14","51"],"terminus":0,"mode":"bus","color":"#0059a9","colorDark":"#00294f","angle":354.5,"snapDist":2,"label":0}},{"type":"Feature","geometry":{"type":"Point","coordinates":[28.614661,44.176682]},"properties":{"name":"Dezrobirii","lines":"14, 51","arr":["14","51"],"terminus":0,"mode":"bus","color":"#0059a9","colorDark":"#00294f","angle":37.6,"snapDist":1,"label":0}},{"type":"Feature","geometry":{"type":"Point","coordinates":[28.604407,44.161275]},"properties":{"name":"Cumpenei","lines":"14, 101, 102","arr":["14","101","102"],"terminus":0,"mode":"bus","color":"#0059a9","colorDark":"#00294f","angle":300.7,"snapDist":6,"label":0}},{"type":"Feature","geometry":{"type":"Point","coordinates":[28.597171,44.159962]},"properties":{"name":"Parc Logistic","lines":"14, 101, 102","arr":["14","101","102"],"terminus":0,"mode":"bus","color":"#0059a9","colorDark":"#00294f","angle":353.2,"snapDist":2,"label":0}},{"type":"Feature","geometry":{"type":"Point","coordinates":[28.593432,44.159575]},"properties":{"name":"CT BUS S.A.","lines":"14, 101, 102","arr":["14","101","102"],"terminus":0,"mode":"bus","color":"#0059a9","colorDark":"#00294f","angle":351.9,"snapDist":3,"label":0}},{"type":"Feature","geometry":{"type":"Point","coordinates":[28.590027,44.159217]},"properties":{"name":"Celco","lines":"14, 101, 102","arr":["14","101","102"],"terminus":0,"mode":"bus","color":"#0059a9","colorDark":"#00294f","angle":351.5,"snapDist":4,"label":0}},{"type":"Feature","geometry":{"type":"Point","coordinates":[28.587179,44.158926]},"properties":{"name":"Cap Linie Industriala - debarcare","lines":"14, 101, 102","arr":["14","101","102"],"terminus":0,"mode":"bus","color":"#0059a9","colorDark":"#00294f","angle":172.2,"snapDist":4,"label":1}},{"type":"Feature","geometry":{"type":"Point","coordinates":[28.643746,44.180576]},"properties":{"name":"Mihai Viteazul","lines":"42, 44, 51","arr":["42","44","51"],"terminus":0,"mode":"bus","color":"#0059a9","colorDark":"#00294f","angle":230.1,"snapDist":6,"label":1}},{"type":"Feature","geometry":{"type":"Point","coordinates":[28.645906,44.178726]},"properties":{"name":"Stefan cel Mare","lines":"42, 44, 51","arr":["42","44","51"],"terminus":0,"mode":"bus","color":"#0059a9","colorDark":"#00294f","angle":230,"snapDist":6,"label":1}},{"type":"Feature","geometry":{"type":"Point","coordinates":[28.652159,44.175152]},"properties":{"name":"Cap linie Poarta 2","lines":"42, 44, 48, 51, 101","arr":["42","44","48","51","101"],"terminus":1,"mode":"bus","color":"#0059a9","colorDark":"#00294f","angle":207.5,"snapDist":2,"label":1}},{"type":"Feature","geometry":{"type":"Point","coordinates":[28.657124,44.173207]},"properties":{"name":"Piata Ovidiu","lines":"42, 44, 51, 101","arr":["42","44","51","101"],"terminus":0,"mode":"bus","color":"#0059a9","colorDark":"#00294f","angle":224.2,"snapDist":8,"label":1}},{"type":"Feature","geometry":{"type":"Point","coordinates":[28.659076,44.17114]},"properties":{"name":"C.L.Poarta 1","lines":"42, 44, 51","arr":["42","44","51"],"terminus":0,"mode":"bus","color":"#0059a9","colorDark":"#00294f","angle":239.6,"snapDist":3,"label":1}},{"type":"Feature","geometry":{"type":"Point","coordinates":[28.663045,44.17106]},"properties":{"name":"Cazino","lines":"42, CiTy Tour","arr":["42","CiTy Tour"],"terminus":0,"mode":"bus","color":"#0059a9","colorDark":"#00294f","angle":152.4,"snapDist":3,"label":1}},{"type":"Feature","geometry":{"type":"Point","coordinates":[28.66425,44.174032]},"properties":{"name":"Portul Tomis","lines":"42, CiTy Tour","arr":["42","CiTy Tour"],"terminus":1,"mode":"bus","color":"#0059a9","colorDark":"#00294f","angle":58.4,"snapDist":2,"label":1}},{"type":"Feature","geometry":{"type":"Point","coordinates":[28.659255,44.171087]},"properties":{"name":"Cap Linie Poarta 1","lines":"42, 44, 51, 101, CiTy Tour","arr":["42","44","51","101","CiTy Tour"],"terminus":1,"mode":"bus","color":"#0059a9","colorDark":"#00294f","angle":61.2,"snapDist":2,"label":1}},{"type":"Feature","geometry":{"type":"Point","coordinates":[28.656612,44.173542]},"properties":{"name":"Piata Ovidiu","lines":"42, 44, 51, 101, CiTy Tour","arr":["42","44","51","101","CiTy Tour"],"terminus":0,"mode":"bus","color":"#0059a9","colorDark":"#00294f","angle":38.4,"snapDist":3,"label":0}},{"type":"Feature","geometry":{"type":"Point","coordinates":[28.652112,44.175299]},"properties":{"name":"Poarta 2","lines":"42, 44, 51, 101, CiTy Tour","arr":["42","44","51","101","CiTy Tour"],"terminus":0,"mode":"bus","color":"#0059a9","colorDark":"#00294f","angle":33.6,"snapDist":1,"label":1}},{"type":"Feature","geometry":{"type":"Point","coordinates":[28.649529,44.175645]},"properties":{"name":"Fantasio","lines":"42, 44, 48, 51, 101","arr":["42","44","48","51","101"],"terminus":0,"mode":"bus","color":"#0059a9","colorDark":"#00294f","angle":49.4,"snapDist":3,"label":0}},{"type":"Feature","geometry":{"type":"Point","coordinates":[28.64659,44.178141]},"properties":{"name":"Stefan cel Mare","lines":"42, 44, 48, 51, 101","arr":["42","44","48","51","101"],"terminus":0,"mode":"bus","color":"#0059a9","colorDark":"#00294f","angle":50,"snapDist":2,"label":0}},{"type":"Feature","geometry":{"type":"Point","coordinates":[28.643044,44.181178]},"properties":{"name":"Mihai Viteazul","lines":"42, 48, 101","arr":["42","48","101"],"terminus":0,"mode":"bus","color":"#0059a9","colorDark":"#00294f","angle":50.1,"snapDist":4,"label":0}},{"type":"Feature","geometry":{"type":"Point","coordinates":[28.633048,44.168523]},"properties":{"name":"Cap Linie Gara","lines":"43C, 43M, 100C","arr":["43C","43M","100C"],"terminus":1,"mode":"bus","color":"#0059a9","colorDark":"#00294f","angle":247.8,"snapDist":5,"label":1}},{"type":"Feature","geometry":{"type":"Point","coordinates":[28.64098,44.17752]},"properties":{"name":"I.G.Duca","lines":"44, 51","arr":["44","51"],"terminus":0,"mode":"bus","color":"#0059a9","colorDark":"#00294f","angle":-129.9,"snapDist":2,"label":1}},{"type":"Feature","geometry":{"type":"Point","coordinates":[28.637115,44.180046]},"properties":{"name":"Casa de Cultura","lines":"44, 51","arr":["44","51"],"terminus":0,"mode":"bus","color":"#0059a9","colorDark":"#00294f","angle":7.4,"snapDist":6,"label":0}},{"type":"Feature","geometry":{"type":"Point","coordinates":[28.633192,44.180668]},"properties":{"name":"Nalbei","lines":"44","arr":["44"],"terminus":0,"mode":"bus","color":"#0059a9","colorDark":"#00294f","angle":66,"snapDist":1,"label":1}},{"type":"Feature","geometry":{"type":"Point","coordinates":[28.62858,44.182466]},"properties":{"name":"Rasuri","lines":"44","arr":["44"],"terminus":0,"mode":"bus","color":"#0059a9","colorDark":"#00294f","angle":25,"snapDist":1,"label":1}},{"type":"Feature","geometry":{"type":"Point","coordinates":[28.625215,44.183581]},"properties":{"name":"Frunzelor","lines":"44","arr":["44"],"terminus":0,"mode":"bus","color":"#0059a9","colorDark":"#00294f","angle":24.6,"snapDist":0,"label":1}},{"type":"Feature","geometry":{"type":"Point","coordinates":[28.621714,44.184752]},"properties":{"name":"Acad. Nav. Mircea cel Batran","lines":"44","arr":["44"],"terminus":0,"mode":"bus","color":"#0059a9","colorDark":"#00294f","angle":24.7,"snapDist":1,"label":1}},{"type":"Feature","geometry":{"type":"Point","coordinates":[28.615811,44.186694]},"properties":{"name":"Orizont","lines":"44","arr":["44"],"terminus":0,"mode":"bus","color":"#0059a9","colorDark":"#00294f","angle":25,"snapDist":0,"label":1}},{"type":"Feature","geometry":{"type":"Point","coordinates":[28.611525,44.188595]},"properties":{"name":"Tineretului","lines":"44","arr":["44"],"terminus":0,"mode":"bus","color":"#0059a9","colorDark":"#00294f","angle":35.4,"snapDist":2,"label":1}},{"type":"Feature","geometry":{"type":"Point","coordinates":[28.60556,44.191635]},"properties":{"name":"Cimitirul Municipal","lines":"44","arr":["44"],"terminus":0,"mode":"bus","color":"#0059a9","colorDark":"#00294f","angle":35.4,"snapDist":2,"label":1}},{"type":"Feature","geometry":{"type":"Point","coordinates":[28.603849,44.192506]},"properties":{"name":"Aurel Vlaicu","lines":"44","arr":["44"],"terminus":0,"mode":"bus","color":"#0059a9","colorDark":"#00294f","angle":35.3,"snapDist":1,"label":1}},{"type":"Feature","geometry":{"type":"Point","coordinates":[28.610849,44.202968]},"properties":{"name":"Sala Polivalenta","lines":"44","arr":["44"],"terminus":0,"mode":"bus","color":"#0059a9","colorDark":"#00294f","angle":225.5,"snapDist":10,"label":0}},{"type":"Feature","geometry":{"type":"Point","coordinates":[28.613026,44.20129]},"properties":{"name":"Stefanita Voda","lines":"44","arr":["44"],"terminus":0,"mode":"bus","color":"#0059a9","colorDark":"#00294f","angle":227.4,"snapDist":6,"label":1}},{"type":"Feature","geometry":{"type":"Point","coordinates":[28.617212,44.198991]},"properties":{"name":"Badea Cartan","lines":"44","arr":["44"],"terminus":0,"mode":"bus","color":"#0059a9","colorDark":"#00294f","angle":210.6,"snapDist":9,"label":1}},{"type":"Feature","geometry":{"type":"Point","coordinates":[28.621764,44.196984]},"properties":{"name":"Cap Linie Henri Coanda","lines":"44","arr":["44"],"terminus":1,"mode":"bus","color":"#0059a9","colorDark":"#00294f","angle":194,"snapDist":0,"label":1}},{"type":"Feature","geometry":{"type":"Point","coordinates":[28.617048,44.199061]},"properties":{"name":"Badea Cartan","lines":"44","arr":["44"],"terminus":0,"mode":"bus","color":"#0059a9","colorDark":"#00294f","angle":30.7,"snapDist":3,"label":0}},{"type":"Feature","geometry":{"type":"Point","coordinates":[28.613515,44.200873]},"properties":{"name":"Stefanita Voda","lines":"44","arr":["44"],"terminus":0,"mode":"bus","color":"#0059a9","colorDark":"#00294f","angle":50.7,"snapDist":1,"label":0}},{"type":"Feature","geometry":{"type":"Point","coordinates":[28.611054,44.202819]},"properties":{"name":"Sala Polivalenta","lines":"44","arr":["44"],"terminus":0,"mode":"bus","color":"#0059a9","colorDark":"#00294f","angle":45.5,"snapDist":5,"label":0}},{"type":"Feature","geometry":{"type":"Point","coordinates":[28.604281,44.192287]},"properties":{"name":"Aurel Vlaicu","lines":"44","arr":["44"],"terminus":0,"mode":"bus","color":"#0059a9","colorDark":"#00294f","angle":215.3,"snapDist":5,"label":0}},{"type":"Feature","geometry":{"type":"Point","coordinates":[28.606851,44.190978]},"properties":{"name":"Cimitirul Municipal","lines":"44","arr":["44"],"terminus":0,"mode":"bus","color":"#0059a9","colorDark":"#00294f","angle":215.4,"snapDist":5,"label":0}},{"type":"Feature","geometry":{"type":"Point","coordinates":[28.612192,44.188255]},"properties":{"name":"Tineretului","lines":"44","arr":["44"],"terminus":0,"mode":"bus","color":"#0059a9","colorDark":"#00294f","angle":215.4,"snapDist":5,"label":0}},{"type":"Feature","geometry":{"type":"Point","coordinates":[28.615092,44.186938]},"properties":{"name":"Horia Grigorescu","lines":"44","arr":["44"],"terminus":0,"mode":"bus","color":"#0059a9","colorDark":"#00294f","angle":206.4,"snapDist":4,"label":1}},{"type":"Feature","geometry":{"type":"Point","coordinates":[28.621893,44.184693]},"properties":{"name":"Academia Navala Mircea cel Batran","lines":"44","arr":["44"],"terminus":0,"mode":"bus","color":"#0059a9","colorDark":"#00294f","angle":204.7,"snapDist":5,"label":1}},{"type":"Feature","geometry":{"type":"Point","coordinates":[28.625957,44.183337]},"properties":{"name":"Frunzelor","lines":"44","arr":["44"],"terminus":0,"mode":"bus","color":"#0059a9","colorDark":"#00294f","angle":204.7,"snapDist":3,"label":0}},{"type":"Feature","geometry":{"type":"Point","coordinates":[28.628632,44.182448]},"properties":{"name":"Rasuri","lines":"44","arr":["44"],"terminus":0,"mode":"bus","color":"#0059a9","colorDark":"#00294f","angle":205,"snapDist":4,"label":0}},{"type":"Feature","geometry":{"type":"Point","coordinates":[28.633107,44.180797]},"properties":{"name":"Nalbei","lines":"44","arr":["44"],"terminus":0,"mode":"bus","color":"#0059a9","colorDark":"#00294f","angle":242.6,"snapDist":7,"label":0}},{"type":"Feature","geometry":{"type":"Point","coordinates":[28.636663,44.180081]},"properties":{"name":"Casa de Cultura","lines":"44, 51","arr":["44","51"],"terminus":0,"mode":"bus","color":"#0059a9","colorDark":"#00294f","angle":186.1,"snapDist":6,"label":0}},{"type":"Feature","geometry":{"type":"Point","coordinates":[28.64156,44.177653]},"properties":{"name":"I.G.Duca","lines":"44, 51","arr":["44","51"],"terminus":0,"mode":"bus","color":"#0059a9","colorDark":"#00294f","angle":89,"snapDist":3,"label":0}},{"type":"Feature","geometry":{"type":"Point","coordinates":[28.576616,44.168891]},"properties":{"name":"Cap linie Palas - Debarcare","lines":"48","arr":["48"],"terminus":1,"mode":"bus","color":"#0059a9","colorDark":"#00294f","angle":352.9,"snapDist":4,"label":1}},{"type":"Feature","geometry":{"type":"Point","coordinates":[28.576709,44.168646]},"properties":{"name":"Palas - Imbarcare","lines":"48","arr":["48"],"terminus":0,"mode":"bus","color":"#0059a9","colorDark":"#00294f","angle":169.1,"snapDist":2,"label":1}},{"type":"Feature","geometry":{"type":"Point","coordinates":[28.581747,44.168997]},"properties":{"name":"Politia Rutiera","lines":"48","arr":["48"],"terminus":0,"mode":"bus","color":"#0059a9","colorDark":"#00294f","angle":174.8,"snapDist":3,"label":1}},{"type":"Feature","geometry":{"type":"Point","coordinates":[28.588003,44.169406]},"properties":{"name":"Scoala Nr.31","lines":"48","arr":["48"],"terminus":0,"mode":"bus","color":"#0059a9","colorDark":"#00294f","angle":175.2,"snapDist":3,"label":1}},{"type":"Feature","geometry":{"type":"Point","coordinates":[28.591848,44.169652]},"properties":{"name":"Abrud","lines":"48","arr":["48"],"terminus":0,"mode":"bus","color":"#0059a9","colorDark":"#00294f","angle":175.5,"snapDist":2,"label":1}},{"type":"Feature","geometry":{"type":"Point","coordinates":[28.597522,44.170027]},"properties":{"name":"Complex I.C.Bratianu","lines":"48","arr":["48"],"terminus":0,"mode":"bus","color":"#0059a9","colorDark":"#00294f","angle":174.8,"snapDist":3,"label":1}},{"type":"Feature","geometry":{"type":"Point","coordinates":[28.602279,44.170334]},"properties":{"name":"Penes Curcanul","lines":"48","arr":["48"],"terminus":0,"mode":"bus","color":"#0059a9","colorDark":"#00294f","angle":174.8,"snapDist":3,"label":1}},{"type":"Feature","geometry":{"type":"Point","coordinates":[28.6117,44.170887]},"properties":{"name":"Cora","lines":"48","arr":["48"],"terminus":0,"mode":"bus","color":"#0059a9","colorDark":"#00294f","angle":165.1,"snapDist":3,"label":1}},{"type":"Feature","geometry":{"type":"Point","coordinates":[28.616712,44.171259]},"properties":{"name":"Scoala Nr.8","lines":"48","arr":["48"],"terminus":0,"mode":"bus","color":"#0059a9","colorDark":"#00294f","angle":175,"snapDist":2,"label":1}},{"type":"Feature","geometry":{"type":"Point","coordinates":[28.620539,44.171505]},"properties":{"name":"Bravilor","lines":"48","arr":["48"],"terminus":0,"mode":"bus","color":"#0059a9","colorDark":"#00294f","angle":174.9,"snapDist":0,"label":1}},{"type":"Feature","geometry":{"type":"Point","coordinates":[28.624747,44.17174]},"properties":{"name":"Corbului","lines":"48","arr":["48"],"terminus":0,"mode":"bus","color":"#0059a9","colorDark":"#00294f","angle":181.5,"snapDist":3,"label":1}},{"type":"Feature","geometry":{"type":"Point","coordinates":[28.62977,44.172101]},"properties":{"name":"Labirintului","lines":"48","arr":["48"],"terminus":0,"mode":"bus","color":"#0059a9","colorDark":"#00294f","angle":174.8,"snapDist":3,"label":1}},{"type":"Feature","geometry":{"type":"Point","coordinates":[28.635501,44.172471]},"properties":{"name":"Liceul Teoretic Ovidius","lines":"48","arr":["48"],"terminus":0,"mode":"bus","color":"#0059a9","colorDark":"#00294f","angle":174.9,"snapDist":1,"label":1}},{"type":"Feature","geometry":{"type":"Point","coordinates":[28.642644,44.176111]},"properties":{"name":"Piata Grivitei","lines":"48, 101","arr":["48","101"],"terminus":0,"mode":"bus","color":"#0059a9","colorDark":"#00294f","angle":230.2,"snapDist":5,"label":1}},{"type":"Feature","geometry":{"type":"Point","coordinates":[28.635587,44.172477]},"properties":{"name":"Liceul Teoretic Ovidius","lines":"48","arr":["48"],"terminus":0,"mode":"bus","color":"#0059a9","colorDark":"#00294f","angle":354.9,"snapDist":3,"label":0}},{"type":"Feature","geometry":{"type":"Point","coordinates":[28.62994,44.172112]},"properties":{"name":"Labirintului","lines":"48","arr":["48"],"terminus":0,"mode":"bus","color":"#0059a9","colorDark":"#00294f","angle":355,"snapDist":0,"label":0}},{"type":"Feature","geometry":{"type":"Point","coordinates":[28.624071,44.171733]},"properties":{"name":"Corbului","lines":"48","arr":["48"],"terminus":0,"mode":"bus","color":"#0059a9","colorDark":"#00294f","angle":354.9,"snapDist":3,"label":0}},{"type":"Feature","geometry":{"type":"Point","coordinates":[28.620768,44.171519]},"properties":{"name":"Bravilor","lines":"48","arr":["48"],"terminus":0,"mode":"bus","color":"#0059a9","colorDark":"#00294f","angle":354.9,"snapDist":3,"label":0}},{"type":"Feature","geometry":{"type":"Point","coordinates":[28.617132,44.171285]},"properties":{"name":"Scoala Nr.8","lines":"48","arr":["48"],"terminus":0,"mode":"bus","color":"#0059a9","colorDark":"#00294f","angle":355,"snapDist":2,"label":0}},{"type":"Feature","geometry":{"type":"Point","coordinates":[28.6088,44.170777]},"properties":{"name":"Nicolae Filimon","lines":"48","arr":["48"],"terminus":0,"mode":"bus","color":"#0059a9","colorDark":"#00294f","angle":345.2,"snapDist":2,"label":1}},{"type":"Feature","geometry":{"type":"Point","coordinates":[28.602111,44.170324]},"properties":{"name":"Alba Iulia","lines":"48","arr":["48"],"terminus":0,"mode":"bus","color":"#0059a9","colorDark":"#00294f","angle":355.2,"snapDist":1,"label":1}},{"type":"Feature","geometry":{"type":"Point","coordinates":[28.598332,44.170079]},"properties":{"name":"Complex I.C.Bratianu","lines":"48","arr":["48"],"terminus":0,"mode":"bus","color":"#0059a9","colorDark":"#00294f","angle":354.8,"snapDist":1,"label":0}},{"type":"Feature","geometry":{"type":"Point","coordinates":[28.591176,44.169611]},"properties":{"name":"Abrud","lines":"48","arr":["48"],"terminus":0,"mode":"bus","color":"#0059a9","colorDark":"#00294f","angle":355,"snapDist":1,"label":0}},{"type":"Feature","geometry":{"type":"Point","coordinates":[28.586917,44.16934]},"properties":{"name":"Scoala Nr.31","lines":"48","arr":["48"],"terminus":0,"mode":"bus","color":"#0059a9","colorDark":"#00294f","angle":353.6,"snapDist":1,"label":0}},{"type":"Feature","geometry":{"type":"Point","coordinates":[28.581546,44.168984]},"properties":{"name":"Politia Rutiera","lines":"48","arr":["48"],"terminus":0,"mode":"bus","color":"#0059a9","colorDark":"#00294f","angle":354.8,"snapDist":1,"label":0}},{"type":"Feature","geometry":{"type":"Point","coordinates":[28.609483,44.176622]},"properties":{"name":"Nicolae Milescu","lines":"51","arr":["51"],"terminus":0,"mode":"bus","color":"#0059a9","colorDark":"#00294f","angle":302.3,"snapDist":4,"label":1}},{"type":"Feature","geometry":{"type":"Point","coordinates":[28.607544,44.175324]},"properties":{"name":"Halta Traian","lines":"51","arr":["51"],"terminus":0,"mode":"bus","color":"#0059a9","colorDark":"#00294f","angle":2.6,"snapDist":8,"label":1}},{"type":"Feature","geometry":{"type":"Point","coordinates":[28.603494,44.174662]},"properties":{"name":"Interioara 2","lines":"51","arr":["51"],"terminus":0,"mode":"bus","color":"#0059a9","colorDark":"#00294f","angle":34.9,"snapDist":2,"label":1}},{"type":"Feature","geometry":{"type":"Point","coordinates":[28.597095,44.177991]},"properties":{"name":"R.A.J.A.","lines":"51","arr":["51"],"terminus":1,"mode":"bus","color":"#0059a9","colorDark":"#00294f","angle":37.7,"snapDist":0,"label":1}},{"type":"Feature","geometry":{"type":"Point","coordinates":[28.600645,44.176085]},"properties":{"name":"Interioara 3","lines":"51","arr":["51"],"terminus":0,"mode":"bus","color":"#0059a9","colorDark":"#00294f","angle":215.6,"snapDist":3,"label":1}},{"type":"Feature","geometry":{"type":"Point","coordinates":[28.603433,44.174693]},"properties":{"name":"Interioara 2","lines":"51","arr":["51"],"terminus":0,"mode":"bus","color":"#0059a9","colorDark":"#00294f","angle":214.9,"snapDist":6,"label":0}},{"type":"Feature","geometry":{"type":"Point","coordinates":[28.610137,44.177308]},"properties":{"name":"Nicolae Milescu","lines":"51","arr":["51"],"terminus":0,"mode":"bus","color":"#0059a9","colorDark":"#00294f","angle":127,"snapDist":2,"label":0}},{"type":"Feature","geometry":{"type":"Point","coordinates":[28.631195,44.199048]},"properties":{"name":"Padre Pio","lines":"100C, 100M","arr":["100C","100M"],"terminus":0,"mode":"bus","color":"#0059a9","colorDark":"#00294f","angle":259.7,"snapDist":1,"label":1}},{"type":"Feature","geometry":{"type":"Point","coordinates":[28.632037,44.195927]},"properties":{"name":"Dacia","lines":"100C, 100M","arr":["100C","100M"],"terminus":0,"mode":"bus","color":"#0059a9","colorDark":"#00294f","angle":258.9,"snapDist":7,"label":0}},{"type":"Feature","geometry":{"type":"Point","coordinates":[28.632994,44.192439]},"properties":{"name":"Farului","lines":"100C, 100M","arr":["100C","100M"],"terminus":0,"mode":"bus","color":"#0059a9","colorDark":"#00294f","angle":258.8,"snapDist":2,"label":1}},{"type":"Feature","geometry":{"type":"Point","coordinates":[28.633838,44.189392]},"properties":{"name":"Portitei","lines":"100C, 100M","arr":["100C","100M"],"terminus":0,"mode":"bus","color":"#0059a9","colorDark":"#00294f","angle":259,"snapDist":1,"label":1}},{"type":"Feature","geometry":{"type":"Point","coordinates":[28.636045,44.176197]},"properties":{"name":"Bucuresti","lines":"100C, 100M","arr":["100C","100M"],"terminus":0,"mode":"bus","color":"#0059a9","colorDark":"#00294f","angle":268.4,"snapDist":1,"label":1}},{"type":"Feature","geometry":{"type":"Point","coordinates":[28.636469,44.173271]},"properties":{"name":"Policlinica 2","lines":"100C, 100M","arr":["100C","100M"],"terminus":0,"mode":"bus","color":"#0059a9","colorDark":"#00294f","angle":261.6,"snapDist":5,"label":1}},{"type":"Feature","geometry":{"type":"Point","coordinates":[28.6369,44.171774]},"properties":{"name":"Policlinica 2","lines":"100C, 100M","arr":["100C","100M"],"terminus":0,"mode":"bus","color":"#0059a9","colorDark":"#00294f","angle":82.1,"snapDist":5,"label":0}},{"type":"Feature","geometry":{"type":"Point","coordinates":[28.636472,44.173257]},"properties":{"name":"Scoala nr.24","lines":"100C, 100M","arr":["100C","100M"],"terminus":0,"mode":"bus","color":"#0059a9","colorDark":"#00294f","angle":81.6,"snapDist":10,"label":1}},{"type":"Feature","geometry":{"type":"Point","coordinates":[28.636044,44.176227]},"properties":{"name":"Bucuresti","lines":"100C, 100M","arr":["100C","100M"],"terminus":0,"mode":"bus","color":"#0059a9","colorDark":"#00294f","angle":88.4,"snapDist":2,"label":0}},{"type":"Feature","geometry":{"type":"Point","coordinates":[28.633813,44.189486]},"properties":{"name":"Portitei","lines":"100C, 100M","arr":["100C","100M"],"terminus":0,"mode":"bus","color":"#0059a9","colorDark":"#00294f","angle":79,"snapDist":3,"label":0}},{"type":"Feature","geometry":{"type":"Point","coordinates":[28.632992,44.192448]},"properties":{"name":"Farului","lines":"100C, 100M","arr":["100C","100M"],"terminus":0,"mode":"bus","color":"#0059a9","colorDark":"#00294f","angle":78.8,"snapDist":1,"label":0}},{"type":"Feature","geometry":{"type":"Point","coordinates":[28.632133,44.195574]},"properties":{"name":"Dacia","lines":"100C, 100M","arr":["100C","100M"],"terminus":0,"mode":"bus","color":"#0059a9","colorDark":"#00294f","angle":78.9,"snapDist":1,"label":0}},{"type":"Feature","geometry":{"type":"Point","coordinates":[28.631057,44.199593]},"properties":{"name":"Padre Pio","lines":"100C, 100M","arr":["100C","100M"],"terminus":0,"mode":"bus","color":"#0059a9","colorDark":"#00294f","angle":79.7,"snapDist":4,"label":0}},{"type":"Feature","geometry":{"type":"Point","coordinates":[28.632443,44.169]},"properties":{"name":"Cap Linie Gara","lines":"100M, CiTy Tour","arr":["100M","CiTy Tour"],"terminus":1,"mode":"bus","color":"#0059a9","colorDark":"#00294f","angle":249,"snapDist":2,"label":0}},{"type":"Feature","geometry":{"type":"Point","coordinates":[28.626611,44.229016]},"properties":{"name":"Flora","lines":"100M, CiTy Tour","arr":["100M","CiTy Tour"],"terminus":0,"mode":"bus","color":"#0059a9","colorDark":"#00294f","angle":74.9,"snapDist":4,"label":1}},{"type":"Feature","geometry":{"type":"Point","coordinates":[28.625544,44.231862]},"properties":{"name":"Melody","lines":"100M, CiTy Tour","arr":["100M","CiTy Tour"],"terminus":0,"mode":"bus","color":"#0059a9","colorDark":"#00294f","angle":71.5,"snapDist":5,"label":1}},{"type":"Feature","geometry":{"type":"Point","coordinates":[28.623558,44.235618]},"properties":{"name":"Cazino","lines":"100M, CiTy Tour","arr":["100M","CiTy Tour"],"terminus":0,"mode":"bus","color":"#0059a9","colorDark":"#00294f","angle":63.8,"snapDist":3,"label":1}},{"type":"Feature","geometry":{"type":"Point","coordinates":[28.621743,44.239154]},"properties":{"name":"Piccadily","lines":"100M, CiTy Tour","arr":["100M","CiTy Tour"],"terminus":0,"mode":"bus","color":"#0059a9","colorDark":"#00294f","angle":77.7,"snapDist":4,"label":1}},{"type":"Feature","geometry":{"type":"Point","coordinates":[28.620819,44.242434]},"properties":{"name":"Iaki","lines":"100M, CiTy Tour","arr":["100M","CiTy Tour"],"terminus":0,"mode":"bus","color":"#0059a9","colorDark":"#00294f","angle":78.9,"snapDist":2,"label":1}},{"type":"Feature","geometry":{"type":"Point","coordinates":[28.61956,44.249112]},"properties":{"name":"Rex","lines":"100M, CiTy Tour","arr":["100M","CiTy Tour"],"terminus":0,"mode":"bus","color":"#0059a9","colorDark":"#00294f","angle":85.8,"snapDist":4,"label":1}},{"type":"Feature","geometry":{"type":"Point","coordinates":[28.618924,44.254907]},"properties":{"name":"Dorna","lines":"100M, CiTy Tour","arr":["100M","CiTy Tour"],"terminus":0,"mode":"bus","color":"#0059a9","colorDark":"#00294f","angle":85.5,"snapDist":2,"label":1}},{"type":"Feature","geometry":{"type":"Point","coordinates":[28.618383,44.259793]},"properties":{"name":"Tabara Nord","lines":"100M, CiTy Tour","arr":["100M","CiTy Tour"],"terminus":0,"mode":"bus","color":"#0059a9","colorDark":"#00294f","angle":87.4,"snapDist":2,"label":1}},{"type":"Feature","geometry":{"type":"Point","coordinates":[28.618427,44.264281]},"properties":{"name":"Cap Linie Mamaia","lines":"100M, CiTy Tour","arr":["100M","CiTy Tour"],"terminus":1,"mode":"bus","color":"#0059a9","colorDark":"#00294f","angle":106,"snapDist":5,"label":1}},{"type":"Feature","geometry":{"type":"Point","coordinates":[28.618474,44.258007]},"properties":{"name":"Tabara Nord","lines":"100M, CiTy Tour","arr":["100M","CiTy Tour"],"terminus":0,"mode":"bus","color":"#0059a9","colorDark":"#00294f","angle":265.5,"snapDist":6,"label":0}},{"type":"Feature","geometry":{"type":"Point","coordinates":[28.618932,44.253818]},"properties":{"name":"Dorna","lines":"100M, CiTy Tour","arr":["100M","CiTy Tour"],"terminus":0,"mode":"bus","color":"#0059a9","colorDark":"#00294f","angle":266.2,"snapDist":6,"label":0}},{"type":"Feature","geometry":{"type":"Point","coordinates":[28.619623,44.247452]},"properties":{"name":"Rex","lines":"100M, CiTy Tour","arr":["100M","CiTy Tour"],"terminus":0,"mode":"bus","color":"#0059a9","colorDark":"#00294f","angle":266.5,"snapDist":8,"label":0}},{"type":"Feature","geometry":{"type":"Point","coordinates":[28.620796,44.242107]},"properties":{"name":"Iaki","lines":"100M, CiTy Tour","arr":["100M","CiTy Tour"],"terminus":0,"mode":"bus","color":"#0059a9","colorDark":"#00294f","angle":259.7,"snapDist":7,"label":0}},{"type":"Feature","geometry":{"type":"Point","coordinates":[28.621907,44.238204]},"properties":{"name":"Piccadily","lines":"100M, CiTy Tour","arr":["100M","CiTy Tour"],"terminus":0,"mode":"bus","color":"#0059a9","colorDark":"#00294f","angle":257.5,"snapDist":4,"label":0}},{"type":"Feature","geometry":{"type":"Point","coordinates":[28.624181,44.234404]},"properties":{"name":"Cazino","lines":"100M, CiTy Tour","arr":["100M","CiTy Tour"],"terminus":0,"mode":"bus","color":"#0059a9","colorDark":"#00294f","angle":250.8,"snapDist":8,"label":0}},{"type":"Feature","geometry":{"type":"Point","coordinates":[28.625725,44.231159]},"properties":{"name":"Melody","lines":"100M, CiTy Tour","arr":["100M","CiTy Tour"],"terminus":0,"mode":"bus","color":"#0059a9","colorDark":"#00294f","angle":253.7,"snapDist":7,"label":0}},{"type":"Feature","geometry":{"type":"Point","coordinates":[28.627137,44.22733]},"properties":{"name":"Flora","lines":"100M, CiTy Tour","arr":["100M","CiTy Tour"],"terminus":0,"mode":"bus","color":"#0059a9","colorDark":"#00294f","angle":251.3,"snapDist":8,"label":0}},{"type":"Feature","geometry":{"type":"Point","coordinates":[28.586615,44.159063]},"properties":{"name":"Cap Linie Industriala - Imbarcare","lines":"101","arr":["101"],"terminus":1,"mode":"bus","color":"#0059a9","colorDark":"#00294f","angle":81.2,"snapDist":2,"label":1}},{"type":"Feature","geometry":{"type":"Point","coordinates":[28.587885,44.161295]},"properties":{"name":"Tipografiei","lines":"101","arr":["101"],"terminus":0,"mode":"bus","color":"#0059a9","colorDark":"#00294f","angle":149.7,"snapDist":3,"label":1}},{"type":"Feature","geometry":{"type":"Point","coordinates":[28.590312,44.163933]},"properties":{"name":"Celulozei","lines":"101","arr":["101"],"terminus":0,"mode":"bus","color":"#0059a9","colorDark":"#00294f","angle":89.8,"snapDist":4,"label":1}},{"type":"Feature","geometry":{"type":"Point","coordinates":[28.592388,44.164411]},"properties":{"name":"R.A.J.D.P.","lines":"101","arr":["101"],"terminus":0,"mode":"bus","color":"#0059a9","colorDark":"#00294f","angle":168.5,"snapDist":5,"label":1}},{"type":"Feature","geometry":{"type":"Point","coordinates":[28.595968,44.164893]},"properties":{"name":"Spicului","lines":"101","arr":["101"],"terminus":0,"mode":"bus","color":"#0059a9","colorDark":"#00294f","angle":168.8,"snapDist":2,"label":1}},{"type":"Feature","geometry":{"type":"Point","coordinates":[28.624389,44.147595]},"properties":{"name":"Gheorghe Marinescu","lines":"101, 101M","arr":["101","101M"],"terminus":0,"mode":"bus","color":"#0059a9","colorDark":"#00294f","angle":299.2,"snapDist":5,"label":1}},{"type":"Feature","geometry":{"type":"Point","coordinates":[28.628661,44.158603]},"properties":{"name":"Aurora","lines":"101, 101M","arr":["101","101M"],"terminus":0,"mode":"bus","color":"#0059a9","colorDark":"#00294f","angle":92.5,"snapDist":3,"label":1}},{"type":"Feature","geometry":{"type":"Point","coordinates":[28.629044,44.16046]},"properties":{"name":"Complex Abator","lines":"101, 101M","arr":["101","101M"],"terminus":0,"mode":"bus","color":"#0059a9","colorDark":"#00294f","angle":111.3,"snapDist":3,"label":1}},{"type":"Feature","geometry":{"type":"Point","coordinates":[28.630199,44.162591]},"properties":{"name":"Piata Abator","lines":"101, 101M","arr":["101","101M"],"terminus":0,"mode":"bus","color":"#0059a9","colorDark":"#00294f","angle":111,"snapDist":2,"label":1}},{"type":"Feature","geometry":{"type":"Point","coordinates":[28.632625,44.168641]},"properties":{"name":"Gara","lines":"101, 101M","arr":["101","101M"],"terminus":1,"mode":"bus","color":"#0059a9","colorDark":"#00294f","angle":67.5,"snapDist":2,"label":0}},{"type":"Feature","geometry":{"type":"Point","coordinates":[28.629946,44.162133]},"properties":{"name":"Piata Abator","lines":"101, 101M","arr":["101","101M"],"terminus":0,"mode":"bus","color":"#0059a9","colorDark":"#00294f","angle":292.1,"snapDist":5,"label":0}},{"type":"Feature","geometry":{"type":"Point","coordinates":[28.629035,44.160443]},"properties":{"name":"Complex Abator","lines":"101, 101M","arr":["101","101M"],"terminus":0,"mode":"bus","color":"#0059a9","colorDark":"#00294f","angle":291.3,"snapDist":16,"label":0}},{"type":"Feature","geometry":{"type":"Point","coordinates":[28.630011,44.157598]},"properties":{"name":"Far","lines":"101, 101M","arr":["101","101M"],"terminus":0,"mode":"bus","color":"#0059a9","colorDark":"#00294f","angle":182.1,"snapDist":3,"label":0}},{"type":"Feature","geometry":{"type":"Point","coordinates":[28.631915,44.202502]},"properties":{"name":"Parcul Tabacariei","lines":"102","arr":["102"],"terminus":0,"mode":"bus","color":"#0059a9","colorDark":"#00294f","angle":169.7,"snapDist":4,"label":1}},{"type":"Feature","geometry":{"type":"Point","coordinates":[28.637218,44.202647]},"properties":{"name":"Palatul Copiilor","lines":"102","arr":["102"],"terminus":0,"mode":"bus","color":"#0059a9","colorDark":"#00294f","angle":177.3,"snapDist":1,"label":1}},{"type":"Feature","geometry":{"type":"Point","coordinates":[28.645252,44.205056]},"properties":{"name":"Delfinariu","lines":"102","arr":["102"],"terminus":0,"mode":"bus","color":"#0059a9","colorDark":"#00294f","angle":140.7,"snapDist":4,"label":0}},{"type":"Feature","geometry":{"type":"Point","coordinates":[28.647774,44.205699]},"properties":{"name":"Zorelelor","lines":"102","arr":["102"],"terminus":0,"mode":"bus","color":"#0059a9","colorDark":"#00294f","angle":160.8,"snapDist":3,"label":0}},{"type":"Feature","geometry":{"type":"Point","coordinates":[28.649518,44.207057]},"properties":{"name":"Faleza Nord","lines":"102","arr":["102"],"terminus":0,"mode":"bus","color":"#0059a9","colorDark":"#00294f","angle":234.9,"snapDist":5,"label":1}},{"type":"Feature","geometry":{"type":"Point","coordinates":[28.637408,44.202727]},"properties":{"name":"Palatul Copiilor","lines":"102","arr":["102"],"terminus":0,"mode":"bus","color":"#0059a9","colorDark":"#00294f","angle":357.2,"snapDist":4,"label":0}},{"type":"Feature","geometry":{"type":"Point","coordinates":[28.6319,44.2026]},"properties":{"name":"Parcul Tabacariei","lines":"102","arr":["102"],"terminus":0,"mode":"bus","color":"#0059a9","colorDark":"#00294f","angle":350.8,"snapDist":3,"label":0}},{"type":"Feature","geometry":{"type":"Point","coordinates":[28.657717,44.161234]},"properties":{"name":"Cuibul Reginei","lines":"CiTy Tour","arr":["CiTy Tour"],"terminus":0,"mode":"bus","color":"#0059a9","colorDark":"#00294f","angle":185.9,"snapDist":7,"label":1}}]}